<?xml version="1.0" encoding="UTF-8"?>
<kml xmlns="http://www.opengis.net/kml/2.2"><Document><Placemark><MultiGeometry><Polygon><outerBoundaryIs><LinearRing><coordinates>1.4007556711958171,38.538610522812014,0 1.3241704916485169,38.62559266780707,0 1.2529418627691504,38.64357431816031,0 1.0077111343222755,38.6985544660562,0 0.8785022967180413,38.687433988183514,0 0.8074332174281997,38.59591238884121,0 0.756065631718194,38.68749832397155,0 0.7078154877433481,38.75766536179319,0 0.6523233274041035,38.80795555066302,0 0.5918908296985915,38.811720740239686,0 0.3249505823832521,38.79515083221328,0 0.27125601479188294,38.83904626804623,0 0.24019405879140326,38.897845360868125,0 0.1719229149076909,38.93512179644782,0 -0.1674229743889031,38.98499205583348,0 -0.2977769974056233,39.02127917164675,0 -0.4888484236556319,39.06776424705482,0 -0.5299712607953355,39.05739057531554,0 -0.5737481692908127,39.029740752000215,0 -0.5999820152913383,38.92763359823911,0 -0.5814241818395863,38.86414912231516,0 -0.5436384411114807,38.80845140380111,0 -0.5449361715112946,38.76980464794407,0 -0.5551754978518125,38.74674038659479,0 -0.5797500507988254,38.75295032228928,0 -0.6966543204925311,38.757334396483444,0 -0.759499495249262,38.75812674582249,0 -0.8557854450764435,38.749104102811884,0 -0.9839213792182823,38.73805400170287,0 -1.2737893881887672,38.77335258751461,0 -1.43086745348482,38.821695102027626,0 -1.4952598688002094,38.79762262313657,0 -1.55162931668659,38.7727517811734,0 -1.743406551397397,38.72578892366088,0 -1.8512502347159563,38.74979864880121,0 -1.9700741339591403,38.8562515992252,0 -2.021098459524436,38.89137012542098,0 -2.0710774721973184,38.90512400197098,0 -2.116744939750459,38.922601474173135,0 -2.2186275042781753,38.96463183783476,0 -2.2918626911512785,39.00896153527498,0 -2.302020015765663,39.02114418080255,0 -2.3172855632018017,38.990738300533756,0 -2.4463865758284884,38.92072184533119,0 -2.735158207351411,38.88424328691007,0 -3.0242789088107327,39.074770188996084,0 -3.0514582819636407,39.10510939746721,0 -3.0396271601880644,39.13902061220819,0 -3.040573906776956,39.15950204181841,0 -3.0969390350818435,39.22315764937501,0 -3.1576936545379484,39.203686401907575,0 -3.2100004477384525,39.18635333391921,0 -3.425917183041629,39.196611006668896,0 -3.521796065554629,39.235624357215556,0 -3.664070440250922,39.289141351529025,0 -3.893197685976475,39.357660901780285,0 -4.07179573445035,39.40169584647703,0 -4.154150176812728,39.33287333838141,0 -4.242483558132563,39.334096007761794,0 -4.316793287224081,39.353397387580976,0 -4.368327187270444,39.432206975262105,0 -4.293449932683118,39.492874326476304,0 -4.230526491540587,39.657003749127654,0 -4.236049507912795,39.73737563254704,0 -4.279826461986151,39.77470610019212,0 -4.449222230877222,39.79783059640316,0 -4.720892430834844,39.83099404708324,0 -4.803245473210521,39.822140342818734,0 -4.852900036156008,39.80757518879765,0 -4.939361409141749,39.886841344924754,0 -4.947846589101441,39.919340790906546,0 -4.859057167135346,39.95754178838622,0 -4.747504226964937,39.97274964221783,0 -4.6152832104302695,40.07487473292649,0 -4.514439093515303,40.21835483378985,0 -4.442008066462846,40.329416756720555,0 -4.371470793674336,40.46287473199936,0 -4.371032743992785,40.509884627827,0 -4.369189140412253,40.5584720518653,0 -4.349059873422772,40.7344164745188,0 -4.228232461097001,41.25835428652842,0 -4.202863541725936,41.31396663932702,0 -4.1685080583433445,41.51127533168309,0 -4.111513278897633,41.88446296451787,0 -4.10643419773189,41.99527282471494,0 -4.09523083217598,42.104670597728266,0 -4.07054895807223,42.19521110414154,0 -4.03078670188495,42.32350283036897,0 -3.929996742804143,42.384809101222636,0 -3.8838050443998418,42.37474508518986,0 -3.818752380859255,42.38132069977741,0 -3.731205367268871,42.423285900008146,0 -3.7689006003483803,42.48983306809213,0 -3.8957882650883815,42.57778050889295,0 -3.973682128535719,42.603217413930004,0 -4.076030730928708,42.473733012160686,0 -4.102264423015224,42.4147223101625,0 -4.112342164132032,42.56937613310639,0 -4.06147031727699,43.05098755557901,0 -4.007873709361125,43.41938852803483,0 -3.9923907564994843,43.7257122961314,0 -3.9947424913424467,43.764812992610196,0 -3.991300928880743,43.83121326820172,0 -3.981511317187383,43.9562277892446,0 -3.8948127507247476,44.08007876630927,0 -3.8493540424406048,44.101056313439315,0 -3.829526272664046,44.06657254612698,0 -3.8310138179383992,44.01406345772174,0 -3.71569195473981,43.93154340868691,0 -3.6816927298784297,43.91644607402629,0 -3.616871259315522,43.904958458353775,0 -3.5735002082302474,43.88407379085735,0 -3.351427696695981,43.721546721213734,0 -3.2931978020689443,43.649641818638294,0 -3.2700292375322606,43.61729188528065,0 -3.218569128840738,43.469591995037355,0 -3.2092017917183724,43.406052692726114,0 -3.17562819573745,43.29257759614275,0 -3.1522220535683276,43.24506763099243,0 -2.8408665328831137,42.858218567163824,0 -2.8481699568499113,43.02969848708044,0 -2.87572670973608,43.097519118722936,0 -2.9838921315619804,43.15684007049644,0 -3.031984657786211,43.19103642697177,0 -3.0580107680490993,43.22285282538193,0 -3.0955377770141936,43.29538603723247,0 -3.1744605126410175,43.65252921748336,0 -3.198621252720706,43.718082662193446,0 -3.258587250965121,43.84073535670241,0 -3.3237195096740324,43.92069149219059,0 -3.3657695073021228,43.958634563032724,0 -3.4769196116474848,44.03436180997198,0 -3.7364592674090216,44.18893861101097,0 -3.8967711224865695,44.265879771107194,0 -4.046422658889414,44.31845338966105,0 -4.18205932296039,44.35011673945472,0 -4.171745004178188,44.50394532691704,0 -4.099207112988022,44.52834558024957,0 -4.020571713254731,44.53611714579121,0 -4.030491626236369,44.65770924459158,0 -3.892085999980109,44.72921673517815,0 -3.8695575113698535,44.93328754182829,0 -3.8703128789738193,44.98287238964551,0 -4.003104726376672,45.1434394512648,0 -4.058537043673478,45.19370172619981,0 -3.989604396076479,45.39335984375708,0 -4.011461693548028,45.501766115424836,0 -4.112952992922966,45.51756176863189,0 -4.180951111407542,45.49385616946783,0 -4.200467682136293,45.46123406627586,0 -4.290109143597742,45.47267376705639,0 -4.6766522893166425,45.62700828782486,0 -5.024410030293083,45.71572679275652,0 -5.274202523039381,45.78893019925663,0 -5.355578363982365,45.94932183424321,0 -5.429698307261899,46.06499259248625,0 -5.540794143380897,46.161726163077674,0 -5.7178329093450735,46.28863369665555,0 -5.768329351310511,46.31464580769103,0 -5.817260878813257,46.33288905278908,0 -5.863253857588771,46.35329009893217,0 -5.905767245962428,46.37588318374921,0 -5.946892393639612,46.4113312152672,0 -5.964116816087741,46.445987132475544,0 -5.961110871975548,46.539680127930595,0 -5.891299236231102,46.62125610600537,0 -5.797487664324855,46.6995539632902,0 -5.713431749407055,46.80618791749986,0 -5.751332353462649,46.85431847458946,0 -5.790567921828672,46.88305509278579,0 -5.867930198191968,46.92357593400675,0 -5.961253899640751,46.949951397003595,0 -6.071383696629654,46.962937229527334,0 -6.064947500905185,47.17083469451958,0 -6.0234651374611925,47.249143311813114,0 -5.854785014064072,47.27202430014807,0 -5.7701838827379515,47.26541756118385,0 -5.655465778322344,47.25401716229263,0 -5.618422797306259,47.24372757014601,0 -5.575867430650215,47.21401074413537,0 -5.3925822503361704,47.14540925259237,0 -5.33687423847508,47.13984871857897,0 -5.265586177401075,47.14321628507321,0 -5.567430886605527,47.28425887057405,0 -5.626765263831809,47.299323837967854,0 -5.801316419855358,47.335140935151905,0 -5.84152691187526,47.33460024623034,0 -6.018982010760912,47.30881678812138,0 -6.130630316827062,47.249182453388286,0 -6.294040708604748,47.16880958180956,0 -6.582866962415378,47.20031912195511,0 -6.6725482344690485,47.224726921459826,0 -6.78700505289292,47.25968764387673,0 -6.777498925070064,47.42556801638299,0 -6.679868132661012,47.48397976001258,0 -6.623688257061182,47.46879950331105,0 -6.558233972472281,47.488395046622365,0 -6.659992770998168,47.55560949986516,0 -6.702996804620838,47.5492512548629,0 -6.711644719816478,47.63751207726924,0 -6.597708537107114,47.64519994265194,0 -6.493177103887323,47.6528764716465,0 -6.5344906353451355,47.66783611537579,0 -6.7653567790026505,47.69494041531735,0 -6.901098019214664,47.706078843133675,0 -7.052973833123019,47.653346466971065,0 -7.292653069962184,47.59919089861038,0 -7.3670115525011255,47.612066658797474,0 -7.431278449760134,47.701986810520296,0 -7.335095513856272,47.70290584036711,0 -7.268648042465936,47.70979339342635,0 -7.2006515457226,47.707732918696465,0 -7.108512593024538,47.807104121562766,0 -7.101688115555688,47.84392056452795,0 -7.141867437229106,47.88363681586002,0 -7.4910780226113545,47.79972431343652,0 -7.556700571795626,47.76201191528386,0 -7.874053771066311,47.75830018880666,0 -7.935170240673184,47.77351634966575,0 -7.928150206103714,47.64221135349574,0 -7.909770276004272,47.596233627086605,0 -7.865073273718496,47.55150183450479,0 -7.928882795156458,47.550543547242896,0 -7.9597165045056135,47.65200303335749,0 -7.9432709850743874,47.6896403552738,0 -7.950414375156702,47.7454666734115,0 -7.992023787965711,47.80195453516988,0 -8.064269616027344,47.83051611140793,0 -8.117858863623217,47.86950475011422,0 -8.687914220416662,48.047801097989655,0 -8.926067165583383,48.07245472762633,0 -9.230102100326022,48.089245826833654,0 -9.32283177861701,48.10237331432,0 -9.414539598217024,48.15337373671172,0 -9.452565924696907,48.1894167537457,0 -9.606920198709503,48.251439217378376,0 -9.828766211713008,48.21288210727644,0 -9.92280891045418,48.13679875460497,0 -9.941273228622407,48.098666324489514,0 -9.967317289180686,48.07282070014013,0 -10.021685118959953,48.060419613968136,0 -10.102932993715813,48.04823876173958,0 -10.128624384075176,48.04746846530899,0 -10.315993998094138,48.063743257066335,0 -10.315380605541488,48.1038603844935,0 -10.280589003482538,48.135167993864286,0 -10.297004207816226,48.18353552427186,0 -10.329081747190493,48.232569286092165,0 -10.390330195199832,48.29624282449198,0 -10.44755981492009,48.34289880968787,0 -10.496446537985493,48.37013212406369,0 -10.590848840579415,48.414555208384776,0 -10.678019480720133,48.44115495304005,0 -10.784343583958876,48.43066605209231,0 -10.977697604708169,48.446136635610216,0 -11.037138879980285,48.458860110074234,0 -11.013018481837618,48.51448089477092,0 -10.357488478335696,48.63353634561571,0 -10.314059129503171,48.619840489585194,0 -10.248887808365932,48.613387513354084,0 -10.223919753026978,48.647194192341885,0 -10.218355286064773,48.70741317651745,0 -10.300618232320259,48.805448255091164,0 -10.551655396461136,48.85928783632749,0 -10.603686230677933,48.86412989292901,0 -10.647189288663927,48.83853835469314,0 -10.675022071517164,48.78071998451547,0 -10.736361450725756,48.72939418570287,0 -10.903348304359238,48.91833087727066,0 -10.810915990016323,49.021867336743675,0 -10.757520062016459,49.04064696913517,0 -10.768516338717292,48.97594985051943,0 -10.737411588061432,48.9479612245963,0 -10.499309516106338,48.94717820962103,0 -10.224246627957207,48.963454135470876,0 -10.092305237940604,48.99770931952097,0 -10.301966954601921,49.02684964620808,0 -10.497953140189352,49.03134356935743,0 -10.5747455334026,49.06093892044184,0 -10.887503692014892,49.041543362074094,0 -11.086591218069183,49.011954844910974,0 -11.180115642346871,49.00736357217139,0 -11.228147240134726,49.0602334071252,0 -11.25805221287328,49.1699714298265,0 -11.253640645471137,49.33452667733291,0 -11.211710576697566,49.39011626210873,0 -11.174435945490252,49.4287397536005,0 -11.121776046552204,49.45409128963327,0 -10.988691627813992,49.478309168042365,0 -10.930516114346524,49.461739110510884,0 -10.9094394081741,49.4452452277753,0 -10.907514094480156,49.471457971925275,0 -10.876596510523573,49.564284761145075,0 -10.831615118585798,49.592034491460666,0 -10.487073261703628,49.6823162833111,0 -10.141707596818355,49.72511086693852,0 -9.808371346862025,49.80811168881761,0 -9.763639979375755,49.78992939546969,0 -9.743567334599181,49.740769591796074,0 -9.70889533724039,49.6876185448246,0 -9.528569117995163,49.65874876973842,0 -9.520595383269114,49.695683596616256,0 -9.544763461185529,49.74442660260507,0 -9.497005440115133,49.8091424311165,0 -9.458394104379108,49.83137006359434,0 -9.287268160694689,49.8120688140734,0 -9.198226493128445,49.78463662481424,0 -9.119384613866227,49.76427217700384,0 -9.010865301282259,49.76145798851013,0 -8.926980655429638,49.880749226051414,0 -9.00972501711644,49.9268454128488,0 -9.026697211293131,49.964206858664454,0 -8.954316964687825,50.042476795745465,0 -8.91029299490268,50.06590780253218,0 -8.838433443075047,50.075956932955314,0 -8.639837397804616,50.05378276795479,0 -8.366188139474344,50.15094354512865,0 -8.169603644543278,50.150762071159306,0 -8.039605793136182,50.08363361208653,0 -7.662422151002139,49.82183914284293,0 -7.521564677525062,49.705790321708555,0 -7.331858401878668,49.56077618807049,0 -7.280454412275413,49.52517708447853,0 -7.258785803180729,49.504603895593654,0 -6.860600886147011,49.76233757607632,0 -6.773169647154273,49.80866377355502,0 -6.563462692892841,49.85860053417657,0 -6.51905928082451,49.852877900635605,0 -6.213679856230875,49.80042525737874,0 -6.036630882955669,49.73053684337698,0 -5.902080427590735,49.5749180754067,0 -5.845486899906316,49.606261811485794,0 -5.882477074869894,49.70914248908652,0 -5.9436444384091764,49.73152865426433,0 -5.995064120507826,49.81633966599294,0 -5.951590342440483,49.90021528401914,0 -5.84629939653671,49.92303077596811,0 -5.684540374180209,49.95078116345723,0 -5.667671053115538,49.90392903616181,0 -5.714496969025733,49.8529314047895,0 -5.677557721170854,49.79224079715098,0 -5.642265878351752,49.772238688869116,0 -5.6020635951817095,49.768025289047095,0 -5.554030263779898,49.769559958447026,0 -5.430298563007332,49.77453038228635,0 -5.274105908214048,49.7895629712216,0 -5.225253951148104,49.805416277776835,0 -5.176451150246509,49.836074477351204,0 -5.046147810423508,49.83378524815816,0 -4.938346420802169,49.838543049328536,0 -4.7543147352970205,49.85588826150976,0 -4.914118821328667,49.91132445876263,0 -5.001579387203708,49.931210707843405,0 -5.141573370293487,50.04256412875281,0 -5.1850350248840575,50.208235206511866,0 -5.1826953597283705,50.255324735703454,0 -5.168049790242979,50.35289881941069,0 -5.167541552579315,50.54352201112269,0 -5.218175089759871,50.530500453729246,0 -5.250721692747631,50.58695516617073,0 -5.282155295092024,50.67842510190173,0 -5.300204375814281,50.91395008680292,0 -5.451097876761612,51.05863729625472,0 -5.502922022965989,51.10191086507724,0 -5.585827038176235,51.16927641467317,0 -5.663506763228899,51.2020349106311,0 -5.713237127177948,51.20422311569999,0 -5.804276029718318,51.433285217005306,0 -5.808504701096481,51.589452579429086,0 -5.815880763428209,51.64705791025745,0 -5.8502381272874,51.71174180187581,0 -5.922619047470686,51.739640016928526,0 -5.964248563184147,51.743998936355965,0 -6.028162494855287,51.75908771678976,0 -6.030314878226275,51.84298511248322,0 -5.991749155229579,51.85342318372181,0 -5.837939812337956,51.83488363140014,0 -5.578463526230722,51.78007449611193,0 -5.477164018466442,51.74698527228379,0 -5.388693435541061,51.73902906334913,0 -5.207546539482552,51.748788424662436,0 -5.155817900582731,51.763391730327655,0 -5.108637217541983,51.80306226681079,0 -4.984738999960601,51.84471539012661,0 -4.917625184012098,51.85007975608137,0 -4.811191474243715,51.84192479844081,0 -4.743151997345471,51.8318676385472,0 -4.693672000037552,51.81393834063408,0 -4.639471097280844,51.76218297350167,0 -4.615304915027591,51.6932586445634,0 -4.6716417966412696,51.65317092993507,0 -4.745845350616641,51.61177657447839,0 -4.753456607288613,51.570418360478904,0 -4.724299063194702,51.5182433167069,0 -4.6591551413533665,51.454021552063075,0 -4.626085271212483,51.42308999760726,0 -4.461447361611021,51.29864738061437,0 -4.34772388433614,51.23173501087602,0 -4.291169124020851,51.27149885049091,0 -4.09229687910653,51.28965038235337,0 -3.989718399175244,51.28783194290899,0 -3.933148844584792,51.258463216564415,0 -3.8596368912324013,51.239400348988354,0 -3.7955589788318163,51.23132992334471,0 -3.5958939963403007,51.21736237854986,0 -3.39285669686029,51.209565805631556,0 -3.3120804647757076,51.211938503101166,0 -3.160854725300971,51.21688861980886,0 -2.993291819449051,51.21163759826621,0 -2.8949519689117014,51.183434735918766,0 -2.7487839329680375,51.142858337406,0 -2.61823893732739,51.11075573736002,0 -2.366946104650396,51.14668102302623,0 -2.317828499656913,51.15776848547271,0 -2.252497292213042,51.17621986842262,0 -2.1767248490014266,51.20402001500399,0 -2.0409478931567677,51.25652013085656,0 -2.0005220230608294,51.28750586577683,0 -1.960124256376609,51.325543269135665,0 -1.908648976348533,51.353815601481195,0 -1.8528048876971406,51.37017032912556,0 -1.725019575360363,51.39681315111988,0 -1.656748138693846,51.40365290784419,0 -1.6079885705423118,51.40664450256351,0 -1.4492707839400925,51.426709691546414,0 -1.3559576834253195,51.44847120702288,0 -1.2767887065357297,51.48186824345616,0 -1.2340783833436937,51.515237236649796,0 -1.324754423410864,51.486523292735285,0 -1.4441939659304786,51.45655639581683,0 -1.495432658106811,51.451079708207004,0 -1.569344701795779,51.44811045881671,0 -1.6866488672135997,51.45382575630064,0 -1.8742313394030214,51.47268721156266,0 -1.9691864036110542,51.50656799214524,0 -2.0454358218234954,51.57064681641378,0 -1.875443190382639,51.88622662685658,0 -1.8447437491110499,51.91519327803098,0 -1.7965149898322361,51.94391720299215,0 -1.687774606887456,51.97336813468668,0 -1.6016932257004897,51.996128707745015,0 -1.376753211734161,52.08154556179836,0 -1.1116924895334332,52.19078912911333,0 -1.067820787267347,52.20652767783256,0 -0.9611767970744169,52.23299700463309,0 -0.8654000485754314,52.249645250932794,0 -0.8174377810122396,52.25258944851713,0 -0.11280355846037761,52.35648319057293,0 0.16193894597321112,52.445908475931745,0 0.20420246944400353,52.46272255827069,0 0.4782638295373874,52.622978732118845,0 0.5358166103727833,52.64801337122043,0 0.6086704368846446,52.68976389112528,0 0.6522890679414177,52.73391955358238,0 0.7380564939290295,52.88066864807066,0 0.7927316611991819,53.04728435800534,0 0.8302835744282677,53.178434016322214,0 0.9047711070599126,53.198318717877136,0 0.9288917700550762,53.19539286351991,0 0.8397869630777887,53.257075730163095,0 0.870709127371297,53.494429582749525,0 0.8394770184641607,53.78872617214434,0 0.8393569775298485,53.828403211005735,0 0.9049209637952359,54.023011624731765,0 0.9561058007548844,54.15224993082676,0 1.1860328568579288,54.280239388357856,0 1.2451222009825367,54.30032890502023,0 1.2933481134600335,54.313580159952274,0 1.5977936759425737,54.37570159985102,0 2.189534080591941,54.457011310023944,0 2.441551933280711,54.487784160771994,0 2.4928437287995324,54.483029640441444,0 2.5546184188633,54.491581909340404,0 2.7112998268826094,54.52818445156961,0 2.761023349737519,54.5406197802147,0 2.8119101060766867,54.55618491896509,0 2.923919996332494,54.376826148814715,0 2.9234467570281506,54.24525298260239,0 3.028361156178018,54.03873056746687,0 3.2922079426438002,53.92397710299601,0 3.463545480047678,53.84395425852163,0 3.524787764518792,53.82422582979711,0 3.616553999115378,53.89582797029081,0 3.6523214797386934,53.92591308690619,0 3.761101788132559,53.948531071429564,0 3.7866732809271784,53.9483419533111,0 3.8258101337063963,53.96483126554361,0 3.967775608176201,53.98819473680833,0 4.05257485077985,53.97388486830851,0 4.100453984113959,53.922188687614174,0 4.108780310555751,53.90261480517816,0 4.129252644567033,53.865911456176704,0 4.216837848284326,53.74672475718994,0 4.285013373765865,53.51279536733633,0 4.319948113092748,53.48300041799959,0 4.464738209176874,53.42720975749818,0 4.634998874121289,53.45410764225649,0 4.762675497096886,53.468793664531255,0 4.953379773419141,53.418046155840216,0 5.044095690188594,53.34625838845431,0 5.064410182344228,53.3118205913698,0 5.073512539141836,53.23314524282288,0 5.266223028956555,53.15310029455403,0 5.494874064067498,53.124152964668134,0 5.6832334925279895,53.131557080470564,0 5.787578009064692,53.15025383318968,0 6.039612313560255,53.00945965531603,0 6.094524586491922,52.922989072230195,0 6.040483893872123,52.735301198935275,0 5.982390571776173,52.4970128292298,0 5.9839071483751765,52.43755450957259,0 6.042068577901255,52.43623307093752,0 6.113125525772414,52.400300141483186,0 6.161574774529849,52.406809855766234,0 6.315771103462646,52.416103383301994,0 6.504189002734598,52.37432577703624,0 6.53680132012405,52.365956797474254,0 6.591897641454399,52.35413456793193,0 6.696357948811524,52.36783049099176,0 7.030089050211708,52.45879823107122,0 7.069068131059381,52.56614367151023,0 7.0725449863380305,52.61749999487386,0 7.215440118026686,52.711581834096975,0 7.3413555240474935,52.76923971070484,0 7.459160077281344,52.704000196594876,0 7.39029769647963,52.63284236831802,0 7.358787631552523,52.58387793533197,0 7.314823248805276,52.4411628467523,0 7.38864440400351,52.08141867086347,0 7.468552941343707,52.05547142996943,0 7.523167989256813,52.059157772992165,0 7.567406012995499,52.07766476505649,0 7.629430605790091,52.078947208706694,0 8.282257020146888,51.787712769289705,0 8.398178110876424,51.72074289071955,0 8.425981190773177,51.71027703210386,0 8.474636974236981,51.68296562976243,0 8.549237731463844,51.55404393729767,0 8.541608549666847,51.50344219873602,0 8.639084954653784,51.503054092433466,0 8.779904766321563,51.530188490074735,0 8.856760076837961,51.5459116078632,0 8.995353460162564,51.55577035587196,0 9.17198085765277,51.55611947100957,0 9.202543792944361,51.55379453980156,0 9.207287494700449,51.539731708897236,0 9.25834413769409,51.49416404793798,0 9.289119669646286,51.46874694367823,0 9.524564305923262,51.362970293116696,0 9.745923370851989,51.366047945861794,0 9.803509261439638,51.40639957498627,0 9.886887253636965,51.45705505083367,0 10.03220379337909,51.459593231062975,0 10.056511132901871,51.454916140918904,0 10.160280507498515,51.396516469038986,0 10.20900543319698,51.380853997493716,0 10.273524393583317,51.36039681285144,0 10.37687618548594,51.38767648829024,0 10.481136725175753,51.357345150981615,0 10.556136112592375,51.31983334814767,0 10.61719990053132,51.28225581584135,0 10.711259581876739,51.16468137662732,0 10.87081021113817,50.93717633410059,0 10.915677293673205,50.82711353099739,0 10.939834713952685,50.78930790974672,0 11.141087258152965,50.758512013456,0 11.188889697590248,50.806993047813165,0 11.17421869403873,50.86446230268118,0 11.338315902426086,50.873818587216654,0 11.506285245889654,50.80607885206633,0 11.633246435183786,50.688465032465466,0 11.75043764814478,50.6719846709123,0 12.015965685911484,50.64386657674935,0 12.167525921477619,50.713556849911896,0 12.180442661977827,50.74471715478533,0 12.199716634228853,50.750677241485,0 12.291463947782107,50.75465469715982,0 12.407965200819048,50.72677765508326,0 12.661656282222596,50.53389335271103,0 12.703622780358248,50.49021621559733,0 12.735523180010393,50.48375090174466,0 12.8681285689417,50.479122899326036,0 13.030850813694277,50.47886823000751,0 13.25256531507302,50.47376083132697,0 13.45583392362222,50.388079731086336,0 13.660444183403692,50.31888604558439,0 13.793666503664408,50.29016318800257,0 13.738250496165344,50.27582685828382,0 13.60770037236263,50.16485090401822,0 13.57120136153087,50.11351375395235,0 13.546892137956926,50.07440144595294,0 13.529737338000787,50.02974455287734,0 13.501568374753989,50.00123494064193,0 13.23496406297093,49.86388647259464,0 13.065645025386411,49.758551205700776,0 12.899112724473268,49.59969749924881,0 12.761253356104472,49.32190973858072,0 12.738676151650365,49.264737451060704,0 12.746507909892037,49.22131101834365,0 12.750584065122524,49.1547295614565,0 12.633904428187625,49.04797598803683,0 12.45035430023162,48.84469364953212,0 12.386099477625873,48.75901493523277,0 12.363491477036433,48.70357488287634,0 12.35803897481009,48.62274802556598,0 12.380448242032317,48.59006925645636,0 12.443003090253447,48.52978220974766,0 12.445285536687878,48.48555538758028,0 12.359017937463344,48.358023593384935,0 12.300933335436214,48.28417724212036,0 12.230228864328623,48.14656498171123,0 12.186810818738042,47.973637151878066,0 12.210582017279748,47.9111827623983,0 12.275464251699592,47.86481181931064,0 12.31493066378414,47.78753766394413,0 12.311545351037909,47.76053716315701,0 12.290448916777143,47.761074579670186,0 12.246127358336974,47.752678573081454,0 12.230013485634778,47.72827692172456,0 12.181980544936783,47.719251366470075,0 12.14441539287922,47.70235965728525,0 12.135512426372165,47.60988324201939,0 12.12467530697517,47.5998777377076,0 12.037513622247909,47.55636591959405,0 11.998906521555067,47.54014239924304,0 11.963532239138129,47.51283330501512,0 11.90497897823349,47.49268275034486,0 11.853617441581076,47.49522465635365,0 11.849636501294757,47.49614908102554,0 11.821095594199466,47.506661259482804,0 11.761269273803588,47.51134249273099,0 11.69843568592303,47.49913580279951,0 11.644412297949323,47.480852687108275,0 11.52615080264175,47.52736489108948,0 11.466059485101969,47.6330849886256,0 11.23894396132363,47.65839227531143,0 11.172477125235538,47.64045893280654,0 10.948032032035636,47.397453371629226,0 11.04072969144556,47.38516874496367,0 11.13399080280157,47.38703087388332,0 11.172042826898585,47.391924597009115,0 11.106504260682236,47.25694594976314,0 10.840481699101401,47.04002024955714,0 10.859716487501572,47.02707879500346,0 10.74939432120276,46.96669510014949,0 10.564592060943509,46.84718826290841,0 10.52113112525049,46.79277428768951,0 10.430938140501032,46.73157117558421,0 10.304834174742217,46.69813749312814,0 10.23268424245173,46.68481959431559,0 10.096010615211142,46.546664255637275,0 10.064080398248382,46.44168292921024,0 10.075360446614786,46.332337147257626,0 10.031740193828162,46.28971931815798,0 9.88479116863053,46.21665809336702,0 9.714114813250221,46.15808865764585,0 9.442126395933604,45.98813042625414,0 9.448956287430553,45.89707723857818,0 9.349293638354842,45.73027513274063,0 9.317425602346756,45.68785951989538,0 9.389708110631842,45.65445237158194,0 9.464934215967368,45.59501850714531,0 9.390737207613418,45.46463425213372,0 9.36819553054403,45.44413396317325,0 9.381754628696575,45.37614449801207,0 9.304621521471637,45.353692936432616,0 9.221492676384042,45.342886336397505,0 9.182199391547712,45.329898697241745,0 9.12963726337083,45.308901924948415,0 9.101546990755795,45.28215876914699,0 9.14952679855992,45.16739449516256,0 9.402380100475417,45.1655135784343,0 9.50488399142337,45.20442922138537,0 9.617167026030447,45.2880152424831,0 9.670809057839998,45.36837047966257,0 9.62471718875884,45.4704505195544,0 9.600947342836367,45.49877436847118,0 9.631398302829858,45.547074741881715,0 9.729533520589104,45.61512756315353,0 9.775428094514597,45.63252458607768,0 10.10020081019311,45.714255971375316,0 10.143823136340412,45.72304612962263,0 10.364004149122474,45.72659712876223,0 10.49091783584337,45.70462344744131,0 10.554825683103005,45.688890139147794,0 10.664496801730822,45.64967233809122,0 10.677405513035414,45.60340193126805,0 10.661076221880082,45.55527975571115,0 10.602093314429402,45.13700294638042,0 10.760240177450175,45.00628564211733,0 10.864951353355341,44.94102873892219,0 10.993973783750004,44.8289327937263,0 11.032172914386116,44.7596884016959,0 11.042054737145254,44.70295141653026,0 10.936540527709935,44.60138218157294,0 10.859773056052227,44.571053016710245,0 10.819236724697372,44.56098649023643,0 10.781994970834132,44.5578376573392,0 10.728226726777601,44.5711969610234,0 10.61723764194208,44.53414190846243,0 10.586013692040067,44.449550885770655,0 10.5981238859386,44.338217028576565,0 10.873887577884336,44.07929203355401,0 10.912476551308256,43.943254010471314,0 11.07755942372642,43.84640985074275,0 11.177114137049344,43.755769046110785,0 11.19168002946422,43.65553396309766,0 11.120810359990246,43.43597887847065,0 11.001678811419664,43.37212428535633,0 10.768729085007806,43.29833667687026,0 10.551614655174088,43.2561513537086,0 10.452894933361693,43.28790575113909,0 10.311656275574508,43.25472242665969,0 10.214472279302932,43.21664040131358,0 10.207583198127422,43.21289928066455,0 10.188225133636829,43.19795877740942,0 10.24837742755508,43.05369737515723,0 10.393383780035123,42.82030475091143,0 10.43952464108767,42.79475544159625,0 10.569633331689685,42.72436889491077,0 10.663258692587727,42.70239872962147,0 10.738090065115907,42.71915622786181,0 10.78585634002121,42.705496462096136,0 10.851642988466908,42.677634911321555,0 10.895114579236088,42.63982813645104,0 10.879058561711597,42.47752896003589,0 10.77702281549296,42.374852012101854,0 10.729995614937584,42.33236250444839,0 10.539423759737467,42.10603834913368,0 10.538402575776134,42.06273247998486,0 10.566710388302136,41.79373793554731,0 10.733809373070624,41.61710248673394,0 10.82848069432539,41.54387563039046,0 11.388281283192745,41.30691711130617,0 11.51329095124567,41.292096093701076,0 11.596123543067138,41.312462667836584,0 11.694757014693337,41.341591675260126,0 11.866891705056567,41.38034981262654,0 11.950836280178942,41.35931623714604,0 11.945299826414603,41.29025111966021,0 12.024864882637115,41.20698656023366,0 12.017943785295987,41.17817086952018,0 11.924297727492204,41.05216090837547,0 11.811487602479263,40.97748434449647,0 11.618433179679952,40.81538261862488,0 11.641286798374777,40.71418062414894,0 11.671420393817224,40.639636352030415,0 11.64374246950897,40.657464458401996,0 11.586306448781233,40.64423304811519,0 11.503397253598934,40.59989687571467,0 11.48625727537577,40.62079615469923,0 11.416192186424176,40.58784061536846,0 11.414998382403208,40.546871201623915,0 11.282891581373162,40.51823455857996,0 11.154034143487346,40.507772745770104,0 10.987224256432407,40.436473559197644,0 10.833713498281227,40.27586210485784,0 10.487964187903646,40.028982785694126,0 10.412641946588595,40.0118995593376,0 10.319673845097455,40.012329880989896,0 10.028833317495893,39.81178486394273,0 10.028648784767944,39.767958077540115,0 10.130970481088355,39.74274349690542,0 10.026598410489271,39.574906122190946,0 9.952428356348609,39.59131197583755,0 9.82455881221787,39.58897827595655,0 9.607035068933715,39.54645606661343,0 9.184064367467991,39.4689728099915,0 9.157963790681437,39.37926154742205,0 9.170905952762205,39.34758715839706,0 9.122622388243416,39.358835863278436,0 9.083935695720387,39.376080405886356,0 8.992357217144095,39.44802651939715,0 8.804602859135391,39.484875257575354,0 8.762776558140763,39.425823138491076,0 8.642805657302505,39.37686595530607,0 8.584696586969606,39.38383655140989,0 8.496472956424576,39.45594230516367,0 8.558059935026616,39.48995572341091,0 8.318449526466011,39.63281733173941,0 8.038496190865157,39.67617370603351,0 7.838231986133904,39.69432030439169,0 7.7605290677072425,39.71001225772509,0 7.754574043397269,39.75543626518722,0 7.782357707771752,39.798027355396904,0 7.76729689810135,39.91124349118862,0 7.7321112263716785,39.9587501044447,0 7.680615846370594,39.97802385387356,0 7.581387168018953,39.94728334545564,0 7.5103615716367225,39.93039533234731,0 7.293824680769559,39.93095229473818,0 7.1934162246673425,39.953590889694645,0 7.211097050136832,40.03483900346067,0 7.276294897530461,40.056783471135994,0 7.388389185906518,40.07885618024468,0 7.463904808162815,40.10964302542093,0 7.542363698072259,40.16802088704337,0 7.539656172601317,40.21950607117505,0 7.178110380373761,40.33866117883743,0 7.151083440980821,40.26740180122322,0 7.181201836414489,40.20977547841773,0 7.228380482520655,40.19017804878415,0 7.1982311763886475,40.1324317316818,0 7.15865569599809,40.105316656999314,0 7.111318611245426,40.10428037801935,0 7.052307879375189,40.101241743756894,0 6.993981538600764,40.12076284244121,0 6.9067902627699365,40.1019078939472,0 6.866133095879786,40.082828285210105,0 6.83257099355954,40.059032795119926,0 6.7967048799190355,40.05758966448197,0 6.750349428130061,40.08223384768523,0 6.670501553324305,40.13924449155592,0 6.6865161303827545,40.23228390075635,0 6.68135787863259,40.29019534908012,0 6.6142886306539515,40.385747474390264,0 6.654664035804026,40.113162340756084,0 6.657163078568107,40.058016138885485,0 6.695497293558336,40.012295085783514,0 6.505747545590272,39.988496773060014,0 6.43512513391834,39.99307678627853,0 6.399029651359029,40.003095164381875,0 6.366320950611803,40.04303928084752,0 6.408279822303346,40.118767037648745,0 6.371089812618345,40.15417477881678,0 6.301873169647741,40.177231225577955,0 6.249612063643188,40.18643266798606,0 6.192150629973346,40.18577590408276,0 6.142773157799883,40.182383944757966,0 6.099193585996732,40.172109616377234,0 5.91606257465112,40.19763098585806,0 5.914058497064552,40.265460129222994,0 5.859347398756699,40.272801072786926,0 5.7931762805424025,40.2500014512243,0 5.7788405841892,40.23711553733128,0 5.8639728156385,40.18344024612659,0 5.699970448788853,40.191523344994835,0 5.636982323723927,40.2111821987838,0 5.5851948943016065,40.282157861994456,0 5.583052943480547,40.34111709367397,0 5.537450151810532,40.371351962268484,0 5.451590145990558,40.385917299249066,0 5.2874131444323655,40.34673877725088,0 5.19476494021089,40.31102719254863,0 5.069068107399201,40.22659897724185,0 4.851110474652759,40.10887735172599,0 4.535276336312653,39.93914040086645,0 4.298515360055584,39.88009958529795,0 4.157267262144262,39.83996459461127,0 4.118005315729164,39.82146327002248,0 4.019593214387471,39.769955903220755,0 3.810022131115557,39.6047908331066,0 3.7027707206202303,39.47491618695811,0 3.695897800020363,39.422208237326814,0 3.6368446943594783,39.25860295322666,0 3.561885459191993,39.12167017389393,0 3.486439238944655,39.04896588728378,0 3.506310751826389,38.99247998812439,0 3.5175243646473793,38.98198518267834,0 3.5758910005307496,38.96548607289986,0 3.6205343988771803,38.83422316017946,0 3.6246636345683885,38.61673022489803,0 3.6531521909557325,38.48787388974018,0 3.7448763134623286,38.45380607242416,0 3.7996053105376575,38.437416241407625,0 3.831740997780732,38.36309131989668,0 3.8566290392555125,38.30130059932994,0 3.8621299994418226,38.28484552834863,0 3.8392934212169565,38.28052946797461,0 3.7359310345022543,38.27124768834798,0 3.6971093857191746,38.28191152696041,0 3.6340645421890145,38.340993478846784,0 3.461534540014586,38.36929744460907,0 3.0637957106348885,38.25600960424415,0 2.981933239050971,38.22283309473392,0 2.944345922971809,38.18585496771846,0 2.967586870671219,38.124978461707165,0 2.7271324906979046,38.09418859046714,0 2.627429374476453,38.12307225853507,0 2.56347022437151,38.18007262081612,0 2.3722126870580778,38.254614656992985,0 2.2681899185312986,38.2876285810434,0 2.041598453784219,38.256859886012066,0 2.0042349445169583,38.212582586091834,0 1.9519848583959825,38.153122753227166,0 1.8967384342025848,38.13947443882749,0 1.823399218078499,38.13125138036963,0 1.7805441107430107,38.149709943436,0 1.7391275134044408,38.18145659296586,0 1.7149447768852928,38.240405924641784,0 1.6217053593264767,38.30804798074511,0 1.5245725810821849,38.35110660359652,0 1.3985326806536922,38.38515604219307,0 1.2988663833469687,38.42445929582311,0 1.2996009242467026,38.44691621025056,0 1.33053250268713,38.52080179824236,0 1.3825176857500012,38.54069739145868,0 1.4007556711958171,38.538610522812014,0</coordinates></LinearRing></outerBoundaryIs></Polygon><Polygon><outerBoundaryIs><LinearRing><coordinates>13.451117582803255,37.23378005443836,0 13.602196016410257,37.30403124832854,0 13.500655579167335,37.41570086597073,0 13.42856788556518,37.445050490588024,0 13.37665348484722,37.47083367954188,0 13.344161390673685,37.5416693032724,0 13.321219707840113,37.640251710370585,0 13.408565895463285,37.695306292208116,0 13.462681399058654,37.7027780772943,0 13.526343165661142,37.71960560907445,0 13.44208587571464,37.851342596738476,0 13.408377765455002,37.87686320032788,0 13.369818511640005,37.8804169497294,0 13.349971420342268,37.94312902450773,0 13.52247676765151,38.17483542539039,0 13.622779665321978,38.28191263085533,0 13.926421770926165,38.37581651553817,0 14.233217992373287,38.46631830231907,0 14.2863840611395,38.51615929397775,0 14.345122925608166,38.546168658643715,0 14.403989498351724,38.55059941320536,0 14.581958008433288,38.51653384027104,0 14.61506312472063,38.47078844693847,0 14.638440033183635,38.429468422658374,0 14.686484783717573,38.46187397878789,0 14.740524231737945,38.54301757203945,0 14.738891673392317,38.65485345416403,0 14.701582170458714,38.71607308100868,0 14.786204029545182,39.03314675608296,0 14.851751316733488,39.045220026685186,0 14.918795209784777,39.045196788227734,0 14.983058918757798,38.999885555035824,0 15.007513744706872,38.658658500905084,0 14.964841938668366,38.58300337198509,0 14.936193954256746,38.49631459219771,0 14.917983781936508,38.43047787856037,0 14.916505396471253,38.34943082036848,0 14.953267136864167,38.23358796486851,0 15.008754068798188,38.214369899711095,0 14.991585187029152,38.27491447168483,0 14.9658945192042,38.30048946126409,0 14.936097521587138,38.343224894492735,0 14.975654392076928,38.300246717793215,0 14.998614797781961,38.26777672798259,0 15.02999871638395,38.2171190497126,0 15.048081330619215,38.165606130268586,0 15.061463027501636,37.652717232838945,0 15.046492443595271,37.502235481581195,0 15.023432622618321,37.36468227254906,0 14.825221498852695,37.15155704357288,0 14.782780450093925,37.10779718242623,0 14.74876500665394,37.05239229805203,0 14.719075309489831,36.91263028594688,0 14.722289682954779,36.86778270791879,0 14.725973427109782,36.826650513997585,0 14.700458903101909,36.593486950716596,0 14.65804663795126,36.507712446901856,0 14.552169251716027,36.419856623861804,0 14.45709705242153,36.270676426320264,0 14.39710140399949,36.14478021474435,0 14.409220296844532,36.086483134193536,0 14.348147397151207,35.988209792962174,0 14.283607935950405,35.98688235687112,0 14.199894876784972,36.04578848430529,0 14.1760388824705,36.11784777510216,0 13.938897268521671,36.21432043754281,0 13.879835218373062,36.23976017135533,0 13.84007783183093,36.260912759442476,0 13.626244987173699,36.3798821430066,0 13.62424926156599,36.48416058838082,0 13.663891573896327,36.520952743056725,0 13.784017269135497,36.54204984329264,0 13.861480087767584,36.609137351014056,0 13.796487724685996,36.63536523921228,0 13.748409032485826,36.639273205155064,0 13.655417459840184,36.66479264812314,0 13.533944826968485,36.70629596945632,0 13.501205154096995,36.76411123990883,0 13.58167213103431,36.85646864007781,0 13.658362208043297,36.93331688273928,0 13.687470281730445,37.02040100221917,0 13.652700406158091,37.070752005097226,0 13.585504138764101,37.079549913879944,0 13.531692121029689,37.048614360688134,0 13.455278270685204,37.045808053209775,0 13.382924953892463,37.04590740020856,0 13.326371225852178,37.15523251656357,0 13.366715225479572,37.16714755844096,0 13.413474018014927,37.161131670820524,0 13.460427764429467,37.18888595762535,0 13.451117582803255,37.23378005443836,0</coordinates></LinearRing></outerBoundaryIs></Polygon><Polygon><outerBoundaryIs><LinearRing><coordinates>-4.142178322655242,44.540465616720894,0 -4.198141608557627,44.63664604287249,0 -4.219990086804684,44.663714108242836,0 -4.284215178316686,44.72414938245655,0 -4.34590282401156,44.754339599516776,0 -4.388500752152586,44.776149534123206,0 -4.438496573811701,44.80193762944546,0 -4.456768116387613,44.82284641021894,0 -4.510568903539666,44.987120046799795,0 -4.483771702051435,44.98707462993176,0 -4.440225236757123,44.97783279093738,0 -4.273246346498882,44.89202830479613,0 -4.196056481748759,44.83560732268594,0 -4.075338755508652,44.70080540922397,0 -4.090911955956476,44.6185569230227,0 -4.105850767084872,44.57757059359212,0 -4.142178322655242,44.540465616720894,0</coordinates></LinearRing></outerBoundaryIs></Polygon><Polygon><outerBoundaryIs><LinearRing><coordinates>-4.3089945569341035,45.191270651323606,0 -4.337315795421336,45.19261173513009,0 -4.3731077469484205,45.19946806370427,0 -4.7253342990925224,45.27111547202635,0 -4.751000347692508,45.27977877923572,0 -4.774620823564138,45.29292239869374,0 -4.8119271182031875,45.34732776071383,0 -4.723627332198332,45.36775526668627,0 -4.703716770603843,45.370409607218114,0 -4.676218755620822,45.37040342292346,0 -4.327098052586009,45.27068252127574,0 -4.261090459156271,45.20032889055416,0 -4.3089945569341035,45.191270651323606,0</coordinates></LinearRing></outerBoundaryIs></Polygon><Polygon><outerBoundaryIs><LinearRing><coordinates>-7.809082892451472,47.20041084994315,0 -7.852532430958547,47.21324465307414,0 -7.871683965478271,47.21713439335622,0 -7.963400856102431,47.22350357782362,0 -8.004646928561357,47.2204763573259,0 -8.040418028862907,47.21480039798793,0 -8.062188855676691,47.221454331945814,0 -8.099698773603611,47.24309162427721,0 -8.148997329015891,47.343998914982436,0 -8.128767320186732,47.38233942775016,0 -7.771890769518257,47.25206216246725,0 -7.801545938888401,47.20386398104024,0 -7.809082892451472,47.20041084994315,0</coordinates></LinearRing></outerBoundaryIs></Polygon><Polygon><outerBoundaryIs><LinearRing><coordinates>-9.026493852184187,49.99791276250045,0 -9.037159503731326,49.99742162330539,0 -9.038951891705027,50.00359571031709,0 -9.03359999354739,50.00854374262772,0 -9.026195211962376,50.01409970682243,0 -9.017192843100215,50.01504413578115,0 -9.006287363393616,50.013459955011484,0 -9.001901924860684,50.00791608983077,0 -9.006634643618254,50.002466634348934,0 -9.026493852184187,49.99791276250045,0</coordinates></LinearRing></outerBoundaryIs></Polygon></MultiGeometry></Placemark></Document></kml>