<?xml version="1.0" encoding="UTF-8"?>
<kml xmlns="http://www.opengis.net/kml/2.2" xmlns:gx="http://www.google.com/kml/ext/2.2" xmlns:kml="http://www.opengis.net/kml/2.2" xmlns:atom="http://www.w3.org/2005/Atom">
<Document id="root_doc">
	<name>France.kml</name>
	<open>1</open>
	<atom:link rel="app" href="https://www.google.com/earth/about/versions/#earth-pro" title="Google Earth Pro 7.3.7.1155"></atom:link>
	<Schema name="World_Countries__Generalized_" id="World_Countries__Generalized_">
		<SimpleField type="int" name="FID">
		</SimpleField>
		<SimpleField type="string" name="COUNTRY">
		</SimpleField>
		<SimpleField type="string" name="ISO">
		</SimpleField>
		<SimpleField type="string" name="COUNTRYAFF">
		</SimpleField>
		<SimpleField type="string" name="AFF_ISO">
		</SimpleField>
		<SimpleField type="float" name="SHAPE_Length">
		</SimpleField>
		<SimpleField type="float" name="SHAPE_Area">
		</SimpleField>
	</Schema>
	<StyleMap id="m_ylw-pushpin">
		<Pair>
			<key>normal</key>
			<styleUrl>#s_ylw-pushpin</styleUrl>
		</Pair>
		<Pair>
			<key>highlight</key>
			<styleUrl>#s_ylw-pushpin_hl</styleUrl>
		</Pair>
	</StyleMap>
	<Style id="s_ylw-pushpin">
		<IconStyle>
			<scale>1.1</scale>
			<Icon>
				<href>http://maps.google.com/mapfiles/kml/pushpin/ylw-pushpin.png</href>
			</Icon>
			<hotSpot x="20" y="2" xunits="pixels" yunits="pixels"/>
		</IconStyle>
		<PolyStyle>
			<color>00ffffff</color>
		</PolyStyle>
	</Style>
	<Style id="s_ylw-pushpin_hl">
		<IconStyle>
			<scale>1.3</scale>
			<Icon>
				<href>http://maps.google.com/mapfiles/kml/pushpin/ylw-pushpin.png</href>
			</Icon>
			<hotSpot x="20" y="2" xunits="pixels" yunits="pixels"/>
		</IconStyle>
		<PolyStyle>
			<color>00ffffff</color>
		</PolyStyle>
	</Style>
	<Folder>
		<name>World_Countries__Generalized_</name>
		<Placemark>
			<styleUrl>#m_ylw-pushpin</styleUrl>
			<ExtendedData>
				<SchemaData schemaUrl="#World_Countries__Generalized_">
					<SimpleData name="FID">156</SimpleData>
					<SimpleData name="COUNTRY">France</SimpleData>
					<SimpleData name="ISO">FR</SimpleData>
					<SimpleData name="COUNTRYAFF">France</SimpleData>
					<SimpleData name="AFF_ISO">FR</SimpleData>
					<SimpleData name="SHAPE_Length">65.8470426672871</SimpleData>
					<SimpleData name="SHAPE_Area">64.3483245029273</SimpleData>
				</SchemaData>
			</ExtendedData>
			<MultiGeometry>
				<Polygon>
					<outerBoundaryIs>
						<LinearRing>
							<coordinates>
								1.78171811300007,42.5699641590001,0 1.73860914600004,42.616391186,0 1.69833611300004,42.6261091640001,0 1.55971821000003,42.655964162,0 1.48652709600003,42.6504180250001,0 1.44583614100003,42.601944976,0 1.41721814400006,42.6508361140001,0 1.39028222800005,42.688327026,0 1.35916323800006,42.7152731680001,0 1.32500011000008,42.7174911880001,0 1.17389115900005,42.7097181460001,0 1.14381806400007,42.7333001280001,0 1.12666332500004,42.764718015,0 1.08833606700006,42.784854029,0 0.89694503100003,42.8130450520001,0 0.823609077000071,42.833053996,0 0.7161091570000618,42.8588821600001,0 0.692782153000053,42.853609105,0 0.6677821210000729,42.839164236,0 0.651945018000049,42.785000042,0 0.661809177000066,42.751109157,0 0.682636027000058,42.7212451070001,0 0.681527101000029,42.7006911710001,0 0.675509230000046,42.688482091,0 0.661663331000057,42.6919361060001,0 0.595554087000039,42.695000194,0 0.560000233000039,42.695827153,0 0.505418118000023,42.6916641970001,0 0.432782221000025,42.686664224,0 0.269163280000043,42.7075641640001,0 0.180900163000047,42.7345091330001,0 0.144163287000026,42.722218078,0 0.111945095000067,42.709445063,0 0.002782205000074,42.686073132,0 -0.05791786099996401,42.6997911230001,0 -0.123608847999947,42.7575001910001,0 -0.151945883999929,42.776654013,0 -0.179999778999957,42.784436107,0 -0.20555485999995,42.794164144,0 -0.262499833999925,42.817500201,0 -0.303190788999927,42.841800176,0 -0.308736758999942,42.8483821500001,0 -0.317845875999978,42.8323541070001,0 -0.39194592399997,42.7963912160001,0 -0.555836773999943,42.780000069,0 -0.7158367449999331,42.8845820810001,0 -0.730626780999955,42.901036092,0 -0.723317760999976,42.918945034,0 -0.723472826999966,42.929854081,0 -0.75409979799997,42.964373106,0 -0.7887549439999469,42.954718159,0 -0.818608768999979,42.9461091060001,0 -0.94028181699997,42.954164115,0 -0.993608825999956,42.976109111,0 -1.07278193699995,43.006382199,0 -1.20055483099998,43.0458271000001,0 -1.30028187699997,43.0716641490001,0 -1.34826391399997,43.036173159,0 -1.39805493399996,43.0380540580001,0 -1.43951786199995,43.049373148,0 -1.46673675199997,43.092045082,0 -1.42312671499997,43.1232641510001,0 -1.38389085899996,43.2097181180001,0 -1.38513674499995,43.252564228,0 -1.40889089099994,43.273045073,0 -1.50360874399996,43.28777325,0 -1.65555487899996,43.309436111,0 -1.70208181799995,43.305973212,0 -1.73037292099997,43.298982202,0 -1.77694595999998,43.3425002050001,0 -1.78087288199993,43.35992702,0 -1.72999975799996,43.3788821910001,0 -1.66694588599995,43.385273225,0 -1.59013680699996,43.43763598,0 -1.52999983699993,43.5125001220001,0 -1.48666388799995,43.570544969,0 -1.44389086899997,43.640545092,0 -1.44249980799998,43.6655540090001,0 -1.44028178899993,43.6913821730001,0 -1.42471776799994,43.784718018,0 -1.34444595799994,44.0618001010001,0 -1.32895485899996,44.0910360120001,0 -1.30499988299994,44.1955451010001,0 -1.26416392099998,44.3933270040001,0 -1.25860889899997,44.4522180880001,0 -1.24969088899996,44.510273161,0 -1.23378186899993,44.5581091860001,0 -1.20860883399996,44.625827084,0 -1.15139077799995,44.657082196,0 -1.12610877899994,44.651109084,0 -1.08999987499993,44.653745025,0 -1.04062677699994,44.6749271,0 -1.05986391499994,44.7108271270001,0 -1.12778180599997,44.7593001760001,0 -1.17013673699995,44.7738821730001,0 -1.22986383199998,44.706382203,0 -1.24583672199998,44.675345022,0 -1.24749985899996,44.757773161,0 -1.20721777399996,45.013326996,0 -1.16833680699995,45.208609079,0 -1.15194599499995,45.371382119,0 -1.15221773599995,45.3922180220001,0 -1.14860882399995,45.42750013400009,0 -1.13999977099996,45.493882125,0 -1.08944599899996,45.55860919400001,0 -1.06409979399996,45.569164189,0 -1.05416388599997,45.5505540170001,0 -1.05631786699996,45.5226360770001,0 -0.995417808999946,45.47721806400009,0 -0.9772178469999629,45.468744965,0 -0.94208191499996,45.4618000560001,0 -0.91889086499998,45.45013613399999,0 -0.801317740999934,45.360900046,0 -0.7711088589999801,45.321936099,0 -0.759163975999968,45.3044450780001,0 -0.734317835999946,45.225244978,0 -0.7306088439999601,45.191327104,0 -0.714717760999974,45.1305541140001,0 -0.702917884999977,45.10500020600009,0 -0.53992674899996,44.8956180850001,0 -0.540417760999958,44.9869360700001,0 -0.554163913999957,45.023327109,0 -0.6123638269999671,45.0561090680001,0 -0.638054862999979,45.07485402100011,0 -0.651663888999963,45.092082185,0 -0.67069080899995,45.1311091640001,0 -0.7060367919999631,45.3220541160001,0 -0.717781849999938,45.35721804399999,0 -0.7477818549999711,45.423191166,0 -0.781526725999925,45.466518061,0 -0.803608849999932,45.487218177,0 -0.862499766999974,45.52888210300009,0 -1.00028182699998,45.6144360220001,0 -1.08569090599997,45.6574911760001,0 -1.16583681999992,45.687491181,0 -1.23885493199992,45.70621802900011,0 -1.22902681499994,45.78791811600009,0 -1.18890884699994,45.7998911620001,0 -1.14593667399993,45.802945025,0 -1.14805494799998,45.867773179,0 -1.07097295499995,45.9039451140001,0 -1.05333675999998,46.0122180130001,0 -1.05242681999994,46.0386091060001,0 -1.11999987999997,46.1258270000001,0 -1.14860882399995,46.1533270190001,0 -1.10583680999997,46.258609087,0 -1.11463680299994,46.31658218500009,0 -1.16895488799997,46.32638213900001,0 -1.20631772499996,46.3147180500001,0 -1.21778182199995,46.29763606699999,0 -1.26583678099996,46.304991187,0 -1.46971785899996,46.392773182,0 -1.65429977299993,46.445354035,0 -1.78639085599997,46.488327047,0 -1.82471777899997,46.57500011700011,0 -1.86055494099998,46.6377731950001,0 -1.91680874399998,46.6911090900001,0 -2.00721779599996,46.7616642630001,0 -2.03333681199996,46.7763822140001,0 -2.05889088799995,46.786945089,0 -2.08278182599997,46.7986091770001,0 -2.10471776999998,46.8113821920001,0 -2.12541788599998,46.830973214,0 -2.13333677299994,46.849718167,0 -2.12819078699994,46.89950918699999,0 -2.08778179899997,46.941664125,0 -2.03471781399998,46.9816642440001,0 -1.98587294399994,47.0369271370001,0 -2.00430877199994,47.06319116,0 -2.02416382499996,47.0791642180001,0 -2.06389086099995,47.102082185,0 -2.11263682499992,47.1177731080001,0 -2.17083673699995,47.1266641280001,0 -2.15929083299994,47.23714498800009,0 -2.13416389899993,47.27805404,0 -2.04360883399994,47.28721814300011,0 -1.99889087799994,47.2822181700001,0 -1.93833682399998,47.274164167,0 -1.91902676299998,47.268054095,0 -1.89749985599997,47.251518108,0 -1.80249986799993,47.2119360790001,0 -1.77305491299995,47.20805408500009,0 -1.73499989899994,47.208673172,0 -1.89041781899994,47.2887449900001,0 -1.92139079499998,47.297773138,0 -2.01278187099996,47.319854089,0 -2.03416393799995,47.320273184,0 -2.12944589299997,47.30971802100001,0 -2.19113670099995,47.2800180880001,0 -2.28125490099995,47.240273115,0 -2.43360889899998,47.2625000780001,0 -2.48028185099997,47.277218029,0 -2.53965489499996,47.29805410000009,0 -2.52749979399994,47.38610917799999,0 -2.47319092799995,47.41527317200009,0 -2.44402676699997,47.40610906900011,0 -2.40847291299997,47.41527317200009,0 -2.45959983999995,47.452991066,0 -2.48267287299996,47.4504449790001,0 -2.48347284199997,47.4975641830001,0 -2.42278182699994,47.4994450820001,0 -2.36708190099995,47.501527147,0 -2.38833673099992,47.5102731600001,0 -2.50944584499996,47.5291641260001,0 -2.58083669399997,47.53777317800009,0 -2.66360882599997,47.512773146,0 -2.79305491599996,47.48888220800009,0 -2.83187285099996,47.497282216,0 -2.86175483799997,47.5464642060001,0 -2.81078180299994,47.544936018,0 -2.77528192799997,47.5472180740001,0 -2.73937284899995,47.5447180880001,0 -2.68610887199998,47.59569112399999,0 -2.68083682199995,47.6151361330001,0 -2.70028183199997,47.6370821350001,0 -2.88883676799998,47.599718125,0 -2.92533677099993,47.581053974,0 -3.09347288799995,47.58596426,0 -3.125072829999969,47.5954091560001,0 -3.127781860999959,47.5254090330001,0 -3.12028190199993,47.5005451230001,0 -3.098754994999981,47.4757641940001,0 -3.132636826999939,47.476664242,0 -3.14402682799994,47.5313181070001,0 -3.13347283799993,47.5509731670001,0 -3.134517725999959,47.5808271590001,0 -3.15375486499994,47.6118001360001,0 -3.19055493999997,47.62860903699999,0 -3.21694586499996,47.650554033,0 -3.50889090699997,47.7586091700001,0 -3.63326393299997,47.7774540360001,0 -3.79278194499994,47.7938822310001,0 -3.840972858999979,47.803191172,0 -3.88645490999994,47.83263612799999,0 -3.90444599399996,47.8527731470001,0 -3.98221781799998,47.889718062,0 -4.10139087999994,47.87499122600011,0 -4.15549086799996,47.837009134,0 -4.16749978899998,47.8172181200001,0 -4.18278184199994,47.804164144,0 -4.21221774499998,47.7990181580001,0 -4.25583683399998,47.7947180740001,0 -4.26944585999996,47.7950002090001,0 -4.36736392299997,47.808745021,0 -4.36458180199998,47.83006422400009,0 -4.34430882799995,47.84576420000009,0 -4.34999980499992,47.8719360220001,0 -4.36389079799994,47.898891217,0 -4.39221777499995,47.934436018,0 -4.41944588499996,47.9608271110001,0 -4.44347294599993,47.976664214,0 -4.49034588899997,48.00291817900009,0 -4.53450879599995,48.01950915100011,0 -4.59110877099994,48.0169360740001,0 -4.69180878799995,48.03069111200009,0 -4.72223677299996,48.0391730960001,0 -4.70589977399993,48.06805411700001,0 -4.35389085199995,48.1129090330001,0 -4.33194585599995,48.10443610300009,0 -4.29812672099996,48.0992270850001,0 -4.28291775799994,48.116526998,0 -4.27625498299994,48.1484001910001,0 -4.31326393499995,48.2027730940001,0 -4.44139088099996,48.2383271160001,0 -4.46833668799997,48.242354117,0 -4.49278183799993,48.2299641560001,0 -4.51110886899994,48.20000019300009,0 -4.54659985899997,48.174436058,0 -4.62173674799993,48.2796540890001,0 -4.56652682799995,48.332073171,0 -4.53736383999995,48.340545096,0 -4.54736395399993,48.3064540510001,0 -4.53291774299993,48.2906912120001,0 -4.40833667799996,48.283609174,0 -4.26333679299995,48.28471810000009,0 -4.19215498899996,48.2993731870001,0 -4.29999990899995,48.3205450360001,0 -4.40221788899993,48.328327131,0 -4.44046384199993,48.3462001980001,0 -4.60528189899998,48.34471811,0 -4.71139092599998,48.33471816399999,0 -4.76062672799998,48.33500013100009,0 -4.78215497599996,48.36451817700001,0 -4.79028190199995,48.42374504,0 -4.77666382399997,48.51110911400009,0 -4.75097295499995,48.5394360920001,0 -4.72889083099994,48.558882107,0 -4.69971778499996,48.5708271570001,0 -4.62875491599993,48.5798539640001,0 -4.59958186899996,48.569373232,0 -4.58971787799993,48.5600000850001,0 -4.58694598299996,48.57388219300001,0 -4.56458189099993,48.622354069,0 -4.53930877699997,48.6358271400001,0 -4.35416393499997,48.674164121,0 -4.17194588499996,48.68749118000011,0 -3.99360882499997,48.7227731250001,0 -3.97152686899994,48.711935995,0 -3.96416386999994,48.6852731610001,0 -3.94944591799998,48.6561091670001,0 -3.85749979299993,48.636109107,0 -3.851108758999941,48.6555450650001,0 -3.86069078299994,48.68208217000011,0 -3.83194588399994,48.71527316600001,0 -3.810554931999949,48.726109122,0 -3.72291777599997,48.711527125,0 -3.67833677899995,48.694718057,0 -3.63860873799996,48.6819359900001,0 -3.58242685199997,48.677773201,0 -3.53194600199993,48.739164272,0 -3.57215499699993,48.76569115200001,0 -3.57875490799995,48.7859731780001,0 -3.53666383999996,48.825827116,0 -3.51249981899997,48.8372181220001,0 -3.47471788699994,48.8408270350001,0 -3.37319091099994,48.82430010100011,0 -3.22610879399997,48.8695821590001,0 -3.12444586399994,48.8650001080001,0 -3.06083677399994,48.826382166,0 -2.87916388399998,48.6788911800001,0 -2.81194588199997,48.61416411100001,0 -2.72055497299993,48.5330541100001,0 -2.69555494099995,48.513054051,0 -2.68528191299993,48.50166421800001,0 -2.46589984599996,48.630691213,0 -2.41833673599996,48.65360918,0 -2.30721784599996,48.6761090580001,0 -2.28444589099996,48.67221817900001,0 -2.12833679999994,48.6386090940001,0 -2.03944587799998,48.598218043,0 -1.97610886499996,48.513044999,0 -1.94536387599993,48.5287181520001,0 -1.96028181999998,48.584091184,0 -1.99110878299996,48.5970821280001,0 -2.01419086899995,48.6431091700001,0 -1.98805492099996,48.686945015,0 -1.93249983399994,48.69721804300009,0 -1.84749979199995,48.7091642670001,0 -1.84069083699995,48.6839540170001,0 -1.86708192899994,48.65763601399999,0 -1.85041786799997,48.62471810100001,0 -1.83291779499996,48.6134731070001,0 -1.81221784699994,48.6105449730001,0 -1.78721781499996,48.6105449730001,0 -1.72278193399995,48.61110907500009,0 -1.64110883699993,48.616527137,0 -1.61513667099996,48.6241642250001,0 -1.58862672299995,48.63968214500011,0 -1.52110881699997,48.6363821900001,0 -1.46499985399993,48.6372180330001,0 -1.36889077199993,48.6436090670001,0 -1.44971779999997,48.6755540090001,0 -1.49430885499993,48.6875000650001,0 -1.56257291799994,48.748954,0 -1.57860883999996,48.837773172,0 -1.57555497799996,48.86278208900011,0 -1.56416397099997,48.9144451230001,0 -1.55639092899997,49.0158270920001,0 -1.58299089899998,49.009718026,0 -1.59749980599997,49.0402732480001,0 -1.60999990599993,49.089436128,0 -1.60971777099996,49.2150000550001,0 -1.68110878799996,49.2944450750001,0 -1.70583674299996,49.3183271290001,0 -1.74541776599995,49.35555401,0 -1.78375491499997,49.374300137,0 -1.80909977899995,49.3763181640001,0 -1.84555485499993,49.499718052,0 -1.84076392699995,49.582845074,0 -1.84194594299993,49.613609173,0 -1.85652676599994,49.64860915100011,0 -1.89208179399998,49.66471816300001,0 -1.91305499199996,49.6677731990001,0 -1.94486397999998,49.67693612800011,0 -1.94208185799994,49.7215912200001,0 -1.92200887599995,49.726454065,0 -1.84471783799995,49.7138822160001,0 -1.71528180699994,49.680273131,0 -1.66520881999998,49.6609731290001,0 -1.62055490099993,49.6552730990001,0 -1.52801785199995,49.65750905600001,0 -1.50110875699994,49.6644450810001,0 -1.47549081099993,49.6847911450001,0 -1.41083666599997,49.704991196,0 -1.37652685399996,49.706800179,0 -1.32278192299998,49.700827067,0 -1.28860873599996,49.694445086,0 -1.26416392099998,49.6841641780001,0 -1.23860883899994,49.6558271430001,0 -1.22895489799993,49.6188091380001,0 -1.25916394799998,49.598327119,0 -1.29854598499998,49.5774270110001,0 -1.30402674399994,49.55554504700009,0 -1.29118181299998,49.52735402500009,0 -1.26041788099997,49.492218092,0 -1.24471773799996,49.4752732370001,0 -1.16528193799996,49.4066641740001,0 -1.10958184499998,49.3694361190001,0 -1.07923667299997,49.38978218300009,0 -0.976945937999972,49.39666422800009,0 -0.924581841999952,49.39430019600011,0 -0.8966639019999428,49.3779181020001,0 -0.859717812999975,49.3668001780001,0 -0.827217821999966,49.36166425,0 -0.7255548909999449,49.3516641370001,0 -0.621945850999964,49.34499113599999,0 -0.580554838999944,49.3452731030001,0 -0.503054923999969,49.3461091140001,0 -0.417499831999976,49.341382224,0 -0.367990779999957,49.3252732120001,0 -0.294308821999948,49.302082162,0 -0.228336705999936,49.2836091180001,0 -0.098754828999972,49.300136052,0 -0.073336707999943,49.305545061,0 -0.03944599099998,49.31471804900011,0 8.400002099999999e-08,49.328773159,0 0.070691211000053,49.3554180560001,0 0.092082164000033,49.37152706800001,0 0.113609070000052,49.391391173,0 0.140554039000051,49.4059641170001,0 0.169445118000056,49.414164133,0 0.235282118000043,49.42721810900011,0 0.270282264000059,49.4302731450001,0 0.295236028000033,49.431453988,0 0.3766632000000529,49.44082713500011,0 0.424718160000054,49.451664265,0 0.4657633340000299,49.4688181650001,0 0.488191128000039,49.48624498,0 0.441391106000026,49.4716641570001,0 0.379863243000045,49.456664238,0 0.353609110000036,49.45416425200009,0 0.315836064000052,49.4531911130001,0 0.25610913600002,49.45721811400011,0 0.160836066000059,49.4688910880001,0 0.113191149000045,49.487773169,0 0.075836024000068,49.52256427,0 0.169718201000023,49.6888910690001,0 0.185973226000044,49.70402711,0 0.211109212000054,49.71888218900009,0 0.266945093000061,49.7336091930001,0 0.311109173000034,49.7449911470001,0 0.4269450640000509,49.78860906300011,0 0.563336063000065,49.8447180250001,0 0.58583610900007,49.85277320199999,0 0.640282270000057,49.8661000930001,0 0.689027060000058,49.874300109,0 0.713336088000062,49.875544989,0 1.07110907700007,49.92666420500009,0 1.21097320200005,49.9729091770001,0 1.23250010800007,49.9816642420001,0 1.37242709700007,50.06578217300009,0 1.40166317600006,50.07888208200009,0 1.43874505100007,50.10082707800011,0 1.46110914200005,50.1241641400001,0 1.50555401600008,50.20194501700011,0 1.53444509500002,50.290409132,0 1.55437323800004,50.360064256,0 1.59180916400004,50.370418086,0 1.60385412700003,50.3687911590001,0 1.55979113200004,50.4018731890001,0 1.57721811500005,50.5280540250001,0 1.56416330100006,50.684718166,0 1.56444510000006,50.7058271510001,0 1.59860923500003,50.80916411500001,0 1.62500016000007,50.877773178,0 1.73958211800004,50.94527314700009,0 1.76889111900005,50.95582713699999,0 1.79278222500005,50.96277322000001,0 1.94333612600002,50.995282096,0 2.23528217300003,51.0380541100001,0 2.35944514900007,51.0544450890001,0 2.38471809600003,51.05193605099999,0 2.41513619100004,51.056518102,0 2.49221818400002,51.07610912400001,0 2.51666333400004,51.08277324000011,0 2.54166319900003,51.0911090430001,0 2.59750025300002,50.99582708800009,0 2.59778222000006,50.9258271320001,0 2.65055401200004,50.81610919200009,0 2.78194503800006,50.755553965,0 2.86750013000005,50.713382096,0 2.89805401100006,50.7030450300001,0 2.94305410300007,50.741391063,0 2.96055400800003,50.7575000750001,0 3.01430916500004,50.769864221,0 3.02699115200005,50.7698451100001,0 3.04624505400005,50.778745015,0 3.11639119000006,50.7916642100001,0 3.15857328600003,50.78436424299999,0 3.18287326100005,50.7570451060001,0 3.187218105000059,50.74666411900009,0 3.19778215300005,50.727218103,0 3.24263606300002,50.66416423100001,0 3.27930923700006,50.5400000810001,0 3.297082224000059,50.5243001060001,0 3.37000008800004,50.4952732400001,0 3.45458220900002,50.510409113,0 3.51805400300003,50.5188822110001,0 3.61396326000005,50.4929360300001,0 3.66040017700004,50.4552731210001,0 3.67110923200005,50.4370731600001,0 3.67694504800005,50.39527311100009,0 3.77471810500003,50.3538821000001,0 3.88971815200006,50.34000015900009,0 3.98389118200004,50.3452732150001,0 4.03575404000003,50.355991154,0 4.16500013700005,50.283054012,0 4.19444509300007,50.237500212,0 4.17139117100004,50.137218116,0 4.14721809700006,50.009991219,0 4.14923612400003,49.978373172,0 4.17861821600007,49.978136131,0 4.21526322600005,49.9596000550001,0 4.23958214500004,49.963464113,0 4.31721818200003,49.96971801800001,0 4.41333614800004,49.9491642510001,0 4.43000909500006,49.9450091740001,0 4.45812719500003,49.9392270020001,0 4.51055415500002,49.947491223,0 4.67666319200003,49.99916414699999,0 4.69340017700006,50.05666417100009,0 4.69374517600005,50.0840181770001,0 4.76305412700003,50.1355539730001,0 4.82472716500007,50.167573179,0 4.88590013900006,50.13416425400001,0 4.85333611000004,50.095554022,0 4.83889124100006,50.069164271,0 4.82083611800005,49.992773114,0 4.86847315600005,49.8022180880001,0 4.90971815500006,49.7893000670001,0 4.93729126400007,49.791873143,0 4.95916333700006,49.8022180880001,0 4.99055406800005,49.8036091490001,0 5.33110911800003,49.65666415999999,0 5.39230908200005,49.622554005,0 5.40680910400005,49.61735404000009,0 5.43250014000006,49.60347310499999,0 5.47492715500005,49.535900213,0 5.47278222500006,49.50888215399999,0 5.52250015500005,49.5100001320001,0 5.59333612200004,49.5263822270001,0 5.63194501200007,49.535827123,0 5.70221821800004,49.543054,0 5.792218065000039,49.545827069,0 5.80788216600007,49.5450450370001,0 5.81083611600008,49.537636105,0 5.83860921700006,49.5141642620001,0 5.85528216400007,49.50110911200011,0 5.97958226800006,49.44846422199999,0 6.092500250000059,49.4536090350001,0 6.12024502000003,49.476000115,0 6.16069122400006,49.504300103,0 6.23471818100006,49.5080540220001,0 6.24731819300007,49.5059731310001,0 6.302782252000041,49.4766641300001,0 6.32833616100004,49.4691641700001,0 6.36217323300002,49.4593912070001,0 6.413745072000041,49.4756911580001,0 6.46833607200006,49.461391129,0 6.508336191000069,49.44277324500009,0 6.54124505200002,49.4238821120001,0 6.59471807400007,49.3630539700001,0 6.68694516000005,49.2449911750001,0 6.715073151000071,49.187291159,0 6.72923605300002,49.16763609900001,0 6.83410020000002,49.1550642500001,0 6.85635415300004,49.1817641320001,0 6.846073246000059,49.2120450990001,0 6.92986327600005,49.22020018799999,0 7.01944503400006,49.1874911520001,0 7.09055408400008,49.12749114200011,0 7.15166318700005,49.121109161,0 7.28971816200004,49.1116642640001,0 7.36402708600002,49.151936124,0 7.36901817500006,49.168782241,0 7.37860908300007,49.1723641630001,0 7.42555411200004,49.1764540290001,0 7.48694501500006,49.1641641470001,0 7.62805402000004,49.0672180490001,0 7.65209113900005,49.0449361010001,0 7.66889115500004,49.042218017,0 7.73750021800004,49.042773234,0 7.82139116700006,49.046391199,0 7.93597329200003,49.0488821330001,0 8.04582718600005,49.0081911780001,0 8.15555401000006,48.976391076,0 8.226082193000019,48.96441803,0 8.19832719700003,48.95541804499999,0 8.13750022900007,48.893191131,0 8.12166329300004,48.8650001080001,0 8.111391271000061,48.8436091560001,0 8.10513619200003,48.8194451350001,0 8.09221817000002,48.803600153,0 7.96194512200003,48.7241641860001,0 7.88000011600008,48.664164176,0 7.80221806600002,48.5758271300001,0 7.74540016200007,48.424944994,0 7.73666320100006,48.3940270030001,0 7.74305406700006,48.3711090350001,0 7.74870916900005,48.335791215,0 7.69333613800006,48.2763821300001,0 7.60772706600005,48.164182141,0 7.57838219100006,48.11720006500011,0 7.56930911600006,48.0872181650001,0 7.57049113200003,48.0441090310001,0 7.58389111300005,48.0272181550001,0 7.619773202000031,47.99652714600009,0 7.623191175000039,47.9730539610001,0 7.58416318900004,47.903327088,0 7.55721822100003,47.862782145,0 7.526663333000039,47.788053958,0 7.51208217500005,47.6951360350001,0 7.52763613700006,47.662426999,0 7.56416329800004,47.6391642,0 7.58876317800002,47.5989181560001,0 7.58827317200007,47.584482172,0 7.57708215800005,47.58430916999999,0 7.554027062000049,47.57888222300009,0 7.546663225000029,47.5655539910001,0 7.52166319300005,47.55971817400011,0 7.502573241000049,47.54992710600001,0 7.50221818300002,47.5005451230001,0 7.49694512800005,47.494991106,0 7.45277316900007,47.46999107400009,0 7.43305407100007,47.460545004,0 7.41555399800006,47.445273177,0 7.38541820600005,47.433327121,0 7.35805414200007,47.433609088,0 7.35590016100002,47.4340181250001,0 7.340282161000061,47.4390180980001,0 7.30833604500003,47.4402732040001,0 7.27555408700005,47.4324911100001,0 7.24770923600005,47.42166420500009,0 7.18291813100006,47.4440180710001,0 7.14641812700006,47.49905398200009,0 7.02500022400005,47.50804508200011,0 6.99055412300004,47.497218178,0 6.88166330900003,47.36367317,0 6.93139113000007,47.3588911260001,0 6.98083614400002,47.3616641950001,0 7.000836036000071,47.3650001930001,0 6.97166332500007,47.291936148,0 6.83895416000007,47.171518039,0 6.849718200000039,47.1649912190001,0 6.79333615500008,47.130827084,0 6.69944509300007,47.06389121699999,0 6.67833610800005,47.0341641270001,0 6.632500173000039,47.0000001600001,0 6.56639126400006,46.9800001,0 6.52833608200007,46.9716641300001,0 6.460282237000059,46.89582701700001,0 6.44694512000007,46.8394360870001,0 6.456873149000051,46.781454104,0 6.435000238000039,46.75804512400001,0 6.358745035000031,46.7167270360001,0 6.26916327700008,46.68278217200001,0 6.12868224400006,46.588054093,0 6.135282155000029,46.5397181710001,0 6.08694506000006,46.44943602199999,0 6.071109130000021,46.4263821000001,0 6.11110908100005,46.40971803800009,0 6.15354514800003,46.379264237,0 6.11763606900007,46.3087451060001,0 6.10610910800006,46.29749106,0 6.115554004000049,46.261527163,0 6.074582256000039,46.2484000970001,0 6.03000025400007,46.24139114900001,0 6.009163178000049,46.2338911900001,0 5.981391250000059,46.2219360810001,0 5.96700907800005,46.2072912200001,0 5.99639116900005,46.1469450370001,0 6.13326328900007,46.149782144,0 6.18750023800004,46.1720821970001,0 6.24555413800005,46.21832700100001,0 6.271945063000031,46.26193603200009,0 6.24374515500006,46.3155091340001,0 6.23000017500004,46.3302000960001,0 6.244863301000071,46.35638214400011,0 6.29555403400008,46.394164243,0 6.31971822300005,46.404164189,0 6.49194504400003,46.453045101,0 6.51513609400007,46.4584641700001,0 6.63360909900007,46.464164199,0 6.70277321100002,46.4547181290001,0 6.73778224100005,46.4474910850001,0 6.798336128000071,46.4286091710001,0 6.80701810300008,46.4042270530001,0 6.80000010300006,46.3783271400001,0 6.78347316900005,46.1547180790001,0 6.87389110600003,46.088053953,0 6.933054099000061,46.055273168,0 7.00721818400007,45.99805410599999,0 7.03055407300008,45.9619359820001,0 7.03805403300004,45.9319361450001,0 6.98450909400003,45.875900104,0 6.943891229000029,45.8583271090001,0 6.92221814200008,45.8522180430001,0 6.90208212900006,45.84985401099999,0 6.872363253000061,45.8559731350001,0 6.813336046000069,45.83423601,0 6.799345141000059,45.7886641060001,0 6.80986325600003,45.729645114,0 6.969445138000031,45.59693611699999,0 6.995418141000069,45.5252731910001,0 7.089163191000071,45.4768641800001,0 7.146945014000039,45.4305451120001,0 7.15860910300006,45.3774911850001,0 7.12778213900003,45.2593001480001,0 7.06471820800004,45.2230541160001,0 6.93944513300005,45.1794450850001,0 6.82166329900002,45.153053992,0 6.76639118600002,45.16819120700009,0 6.68992710600003,45.1480540200001,0 6.63778228100006,45.1261091910001,0 6.63411821500006,45.1240001370001,0 6.62396320400006,45.1157181460001,0 6.661663329000021,45.0399911710001,0 6.749027067000039,44.9183270080001,0 6.77528220600004,44.9055451080001,0 6.849309163000039,44.8704091760001,0 6.90166320100008,44.860409062,0 6.94236320800007,44.870691143,0 6.96916333800004,44.8643001090001,0 7.00639122600006,44.8506910840001,0 7.03166333500008,44.831382196,0 7.02833605400002,44.744718011,0 6.97541808200003,44.688191126,0 6.95083613900005,44.664718109,0 6.85278228900006,44.540836095,0 6.85360907900002,44.5177731200001,0 6.87791810800007,44.375136094,0 6.976391221000031,44.2841641140001,0 7.031391258000039,44.2469360580001,0 7.35083615000002,44.13151809,0 7.42097323400003,44.12610908,0 7.46639124700005,44.1386091800001,0 7.520282191000039,44.156109085,0 7.614718076000029,44.1802731060001,0 7.66221815400007,44.170827036,0 7.66166327200006,44.1339540380001,0 7.70904516500002,44.0913090940001,0 7.70624510700003,44.0758270480001,0 7.65860924200007,44.0068000640001,0 7.59833615000002,43.9647180480001,0 7.49621808200004,43.874509156,0 7.51250009600005,43.8211090570001,0 7.53193605400003,43.7820450290001,0 7.51583609400006,43.7909730970001,0 7.48416322900005,43.7827732490001,0 7.43929121300005,43.757518072,0 7.42899119500004,43.7683000490001,0 7.390900139000049,43.7493732090001,0 7.39160908000002,43.727545057,0 7.318609241000049,43.7097180900001,0 7.24680918800004,43.701664254,0 7.15569119400004,43.6605540360001,0 7.074718154000041,43.572218164,0 6.88819113600005,43.434582117,0 6.846391255000071,43.42416425,0 6.79416328100007,43.4227731890001,0 6.636391220000059,43.3111000870001,0 6.637500146000039,43.28777325,0 6.695763258000059,43.276073119,0 6.641663269000051,43.1850000530001,0 6.59944513200003,43.19250018,0 6.52750023900006,43.1891641820001,0 6.406109158000051,43.1630540510001,0 6.16975407300004,43.1153450960001,0 6.15721809800004,43.067218052,0 6.16528216000006,43.05055399,0 6.137782141000061,43.055827046,0 6.115554004000049,43.064436098,0 6.062218110000059,43.1013910710001,0 5.95555403300006,43.118327042,0 5.93333612300006,43.086318062,0 5.86680912500003,43.058609167,0 5.833891211000041,43.0615270750001,0 5.78257317700007,43.0987090300001,0 5.81652709300005,43.1176360380001,0 5.678473292000039,43.1904821530001,0 5.52000016800002,43.210000085,0 5.40694505800008,43.217218077,0 5.36291810600005,43.2246451140001,0 5.35868222700003,43.248745097,0 5.37347326900004,43.2717359870001,0 5.36278215100003,43.3318002030001,0 5.34208220300007,43.3566641130001,0 5.31278225500006,43.366318053,0 5.25763603700005,43.3488181480001,0 5.21805400800002,43.3390270790001,0 5.09639118600006,43.33693613,0 5.03958216600006,43.347909047,0 5.04807320200007,43.3913271380001,0 5.08428218600005,43.4037001680001,0 5.14680011900003,43.416664123,0 5.18860922000005,43.4338822280001,0 5.23152707900005,43.465827002,0 5.22902709300007,43.4931910660001,0 5.02416332000007,43.5526360270001,0 5.01028221800004,43.514436006,0 5.02819116000006,43.4840911690001,0 5.05500017500003,43.4741641460001,0 5.03911814400004,43.44311808,0 5.01739124500006,43.428273226,0 4.99084508700003,43.427226997,0 4.95778216700006,43.4250000930001,0 4.92471807400005,43.4347911620001,0 4.87610923800003,43.423882115,0 4.85360919200002,43.413327119,0 4.83516330500004,43.4003360070001,0 4.81505411400002,43.3992180290001,0 4.78863603100007,43.4118820790001,0 4.74291811400008,43.4414541040001,0 4.75041807300005,43.491109169,0 4.74660011600002,43.521873101,0 4.70750021400005,43.5720822100001,0 4.73444501500006,43.4274271570001,0 4.73671818800005,43.3981091030001,0 4.75896325600007,43.3741450750001,0 4.65278214400007,43.3597181430001,0 4.61305410200004,43.3615180730001,0 4.59263612200004,43.3665270980001,0 4.57368212400007,43.3874910760001,0 4.59610907900003,43.428154035,0 4.57471812700004,43.4466641280001,0 4.53555402000006,43.4583270430001,0 4.50610923200003,43.4627731400001,0 4.47389120800005,43.461936123,0 4.44624517600005,43.459718104,0 4.42194503300004,43.4538911720001,0 4.31889121000006,43.4660001720001,0 4.31687318300004,43.5020732020001,0 4.28610908300004,43.5055540380001,0 4.24930917600005,43.4929181520001,0 4.24143605400008,43.485953964,0 4.28986333800003,43.4580450760001,0 4.19778226400007,43.461109164,0 4.16221818400004,43.47110911,0 4.13232714400004,43.5085001100001,0 4.13041808100007,43.5398539600001,0 4.10450911600003,43.55561814,0 4.05624511100007,43.5627731010001,0 3.96471808100006,43.5408359830001,0 3.91319116900007,43.5212451290001,0 3.84360913500007,43.475554033,0 3.72250018900007,43.41166415,0 3.54666328300004,43.3197180240001,0 3.414100131000049,43.287218033,0 3.33500011000007,43.265273204,0 3.313054109000059,43.255273091,0 3.25805407100006,43.2274911050001,0 3.14110908700007,43.1388821510001,0 3.08139121200003,43.069445124,0 3.07778213200004,43.0413821760001,0 3.04528214100003,42.954164115,0 3.00360916200003,42.881100071,0 2.96131810200006,42.842218098,0 2.97278219900005,42.8122180930001,0 2.97916317400006,42.806664244,0 3.01221821500008,42.798044965,0 3.03805409100005,42.728336029,0 3.04139126200005,42.612636093,0 3.05812707200005,42.5441641580001,0 3.11028212400004,42.5263180810001,0 3.14139122200004,42.5177732330001,0 3.16000022100008,42.4783360430001,0 3.17444509000006,42.445545032,0 3.17765401800006,42.4368090770001,0 3.16471805900005,42.4344359930001,0 3.10610911000003,42.429164111,0 3.08402715300002,42.434718128,0 3.04798212000003,42.4659641870001,0 2.95000018600007,42.4805540630001,0 2.72471809700005,42.4194451270001,0 2.67833616500008,42.4016642600001,0 2.65708217300005,42.38193611,0 2.67041811700005,42.349582131,0 2.53389116300002,42.3329091850001,0 2.47721809800004,42.348191071,0 2.44083611200006,42.37847321,0 2.33221821300003,42.418054066,0 2.27318212200004,42.4356091240001,0 2.14458226900007,42.4193001200001,0 2.12333615600005,42.3957642390001,0 2.09360923400004,42.364164128,0 2.06221816800007,42.356944963,0 2.02055407400007,42.352635994,0 1.99624504600007,42.362500153,0 1.97278225500003,42.3794361230001,0 1.95916333900004,42.410827022,0 1.90639121100003,42.446936093,0 1.85139117400007,42.4699911880001,0 1.78000015800006,42.4883271040001,0 1.72360922800004,42.5094360890001,0 1.72410024000004,42.5213821450001,0 1.74187322700004,42.5606270540001,0 1.77139110500002,42.5711091270001,0 1.78171811300007,42.5699641590001,0 
							</coordinates>
						</LinearRing>
					</outerBoundaryIs>
				</Polygon>
				<Polygon>
					<outerBoundaryIs>
						<LinearRing>
							<coordinates>
								8.65944502900004,42.008327024,0 8.743191138000039,42.0493732040001,0 8.68110923100005,42.106382216,0 8.63889126100003,42.1202820930001,0 8.608327154000049,42.132773141,0 8.587218169000041,42.1697180560001,0 8.570554107000021,42.22166423,0 8.618327100000039,42.253053955,0 8.64889120700008,42.2583270100001,0 8.68454514100006,42.2688181350001,0 8.631663211000051,42.3369360190001,0 8.61152719700004,42.3497180860001,0 8.589445073000039,42.3506910570001,0 8.57583604800004,42.3836091380001,0 8.66528218600007,42.511109117,0 8.71819127400005,42.570554078,0 8.886945137000049,42.628054101,0 9.05742718100004,42.68402711,0 9.085554166000071,42.7119359970001,0 9.117636068000021,42.7294360700001,0 9.15083611600005,42.733327117,0 9.25319122400003,42.7198641040001,0 9.273891172000051,42.696382203,0 9.28889125800004,42.6750001350001,0 9.314791171000021,42.693536044,0 9.34200922300005,42.7381911360001,0 9.33631807800003,42.7977001340001,0 9.31256326200003,42.829300077,0 9.34680015100002,43.000409087,0 9.383336197000061,43.008609103,0 9.421245030000019,43.010418085,0 9.45958217900005,42.988045109,0 9.48840016800006,42.807009076,0 9.467500228000061,42.7655540260001,0 9.45500012800005,42.7186091660001,0 9.44750016800003,42.683053971,0 9.450136109000031,42.639853977,0 9.475973158000039,42.579164136,0 9.508327137000039,42.5704451130001,0 9.495973218000071,42.6022180580001,0 9.48028212700007,42.6151360800001,0 9.46152711600007,42.6370820820001,0 9.48583614400007,42.6152732080001,0 9.50027330100005,42.5986091460001,0 9.52028224600002,42.5724911350001,0 9.53277329300005,42.5455540460001,0 9.562218081000029,42.27277322,0 9.560000229000019,42.192218101,0 9.55257319200007,42.1183270980001,0 9.448054045000051,41.9994450570001,0 9.425553999000041,41.975000074,0 9.408327176000061,41.9445821470001,0 9.396927117000081,41.8693540630001,0 9.40055413400006,41.845553984,0 9.40430017500006,41.8237451100001,0 9.398891165000069,41.6988820780001,0 9.37791813400003,41.652073172,0 9.320554065000071,41.6024911970001,0 9.271663262000059,41.5205540700001,0 9.24194505700007,41.4519450070001,0 9.25110915900007,41.4212090710001,0 9.219654056000021,41.3672911370001,0 9.182563296000071,41.364927105,0 9.132218065000069,41.39416419,0 9.115836138000081,41.4319360630001,0 8.975973186000029,41.477354076,0 8.94110916300002,41.4894360860001,0 8.917500192000031,41.499718167,0 8.790418134000049,41.557844989,0 8.78555411500002,41.613327154,0 8.80698228300002,41.633882095,0 8.875136041000079,41.6480540490001,0 8.91711814400003,41.6856911410001,0 8.878891134000069,41.6980539460001,0 8.851182238000041,41.6989539940001,0 8.79694512200007,41.710273252,0 8.725827188000039,41.729436127,0 8.70500017000006,41.7594361320001,0 8.74777319000003,41.8105540060001,0 8.788891119000031,41.853336079,0 8.802363184000059,41.900418067,0 8.780627065000029,41.9263821860001,0 8.741873168000041,41.9294360480001,0 8.71221816200006,41.9116642340001,0 8.668609131000039,41.908336116,0 8.627218120000069,41.9066642610001,0 8.590973262000031,41.963535977,0 8.613609094000029,41.970836112,0 8.640554063000019,41.9687449950001,0 8.66639111200004,41.9846449620001,0 8.65944502900004,42.008327024,0 
							</coordinates>
						</LinearRing>
					</outerBoundaryIs>
				</Polygon>
				<Polygon>
					<outerBoundaryIs>
						<LinearRing>
							<coordinates>
								-1.21194600499996,45.8069359840001,0 -1.23971776499997,45.85889121100011,0 -1.25083669499998,45.87360011,0 -1.28402685199995,45.906664204,0 -1.31666397199996,45.92360905900009,0 -1.33916384999998,45.93582702399999,0 -1.36555494299995,45.95027323400011,0 -1.37486388399998,45.96166424100011,0 -1.39923678199995,46.04985410000009,0 -1.38471781699997,46.04943601100009,0 -1.36139081299996,46.04388216200001,0 -1.27333674099998,45.9958270340001,0 -1.23305498999997,45.9647181030001,0 -1.17124599799996,45.89131811200011,0 -1.18194599999993,45.8477731190001,0 -1.19118185199994,45.8261731220001,0 -1.21194600499996,45.8069359840001,0 
							</coordinates>
						</LinearRing>
					</outerBoundaryIs>
				</Polygon>
				<Polygon>
					<outerBoundaryIs>
						<LinearRing>
							<coordinates>
								-1.28416381299996,46.15554503800009,0 -1.29944586599993,46.156664189,0 -1.31860874099993,46.160827146,0 -1.50694591499996,46.20416426700011,0 -1.52055494099994,46.2091642400001,0 -1.53291774499996,46.216518019,0 -1.55139078899992,46.2460360650001,0 -1.50305486799994,46.255554051,0 -1.49221773699998,46.2566641500001,0 -1.47736383199998,46.2562450550001,0 -1.29166393999998,46.1980540270001,0 -1.25799081699995,46.159682178,0 -1.28416381299996,46.15554503800009,0 
							</coordinates>
						</LinearRing>
					</outerBoundaryIs>
				</Polygon>
				<Polygon>
					<outerBoundaryIs>
						<LinearRing>
							<coordinates>
								-3.085836805999969,47.287773192,0 -3.10833668399994,47.295554113,0 -3.118336797999969,47.29804504700009,0 -3.16680884099998,47.3034641150001,0 -3.18889079699994,47.3027731110001,0 -3.20819079999995,47.30055408600001,0 -3.21944585199998,47.3045820930001,0 -3.23833681799994,47.316936013,0 -3.25958192499996,47.371727005,0 -3.24694586999993,47.39166419999999,0 -3.06360883699995,47.3144360260001,0 -3.08166395899997,47.2894450470001,0 -3.085836805999969,47.287773192,0 
							</coordinates>
						</LinearRing>
					</outerBoundaryIs>
				</Polygon>
				<Polygon>
					<outerBoundaryIs>
						<LinearRing>
							<coordinates>
								-3.57666395799993,48.8038911720001,0 -3.58221780699995,48.8038911720001,0 -3.58278190999994,48.80721811700001,0 -3.579717820999969,48.8097181040001,0 -3.57555486499996,48.8124911730001,0 -3.57083669199994,48.81277314,0 -3.56528183699993,48.81166421400011,0 -3.56333673199993,48.808609178,0 -3.56610879499993,48.805827057,0 -3.57666395799993,48.8038911720001,0 
							</coordinates>
						</LinearRing>
					</outerBoundaryIs>
				</Polygon>
			</MultiGeometry>
		</Placemark>
	</Folder>
</Document>
</kml>
