<?xml version="1.0" encoding="UTF-8"?>
<kml xmlns="http://www.opengis.net/kml/2.2" xmlns:gx="http://www.google.com/kml/ext/2.2" xmlns:kml="http://www.opengis.net/kml/2.2" xmlns:atom="http://www.w3.org/2005/Atom">
<Document id="root_doc">
	<name>germany.kml</name>
	<atom:link rel="app" href="https://www.google.com/earth/about/versions/#earth-pro" title="Google Earth Pro 7.3.7.1155"></atom:link>
	<Schema name="World_Countries__Generalized_" id="World_Countries__Generalized_">
		<SimpleField type="int" name="FID">
		</SimpleField>
		<SimpleField type="string" name="COUNTRY">
		</SimpleField>
		<SimpleField type="string" name="ISO">
		</SimpleField>
		<SimpleField type="string" name="COUNTRYAFF">
		</SimpleField>
		<SimpleField type="string" name="AFF_ISO">
		</SimpleField>
		<SimpleField type="float" name="SHAPE_Length">
		</SimpleField>
		<SimpleField type="float" name="SHAPE_Area">
		</SimpleField>
	</Schema>
	<StyleMap id="m_ylw-pushpin">
		<Pair>
			<key>normal</key>
			<styleUrl>#s_ylw-pushpin</styleUrl>
		</Pair>
		<Pair>
			<key>highlight</key>
			<styleUrl>#s_ylw-pushpin_hl</styleUrl>
		</Pair>
	</StyleMap>
	<Style id="s_ylw-pushpin">
		<IconStyle>
			<scale>1.1</scale>
			<Icon>
				<href>http://maps.google.com/mapfiles/kml/pushpin/ylw-pushpin.png</href>
			</Icon>
			<hotSpot x="20" y="2" xunits="pixels" yunits="pixels"/>
		</IconStyle>
	</Style>
	<Style id="s_ylw-pushpin_hl">
		<IconStyle>
			<scale>1.3</scale>
			<Icon>
				<href>http://maps.google.com/mapfiles/kml/pushpin/ylw-pushpin.png</href>
			</Icon>
			<hotSpot x="20" y="2" xunits="pixels" yunits="pixels"/>
		</IconStyle>
	</Style>
	<Folder>
		<name>World_Countries__Generalized_</name>
		<Placemark>
			<styleUrl>#m_ylw-pushpin</styleUrl>
			<ExtendedData>
				<SchemaData schemaUrl="#World_Countries__Generalized_">
					<SimpleData name="FID">161</SimpleData>
					<SimpleData name="COUNTRY">Germany</SimpleData>
					<SimpleData name="ISO">DE</SimpleData>
					<SimpleData name="COUNTRYAFF">Germany</SimpleData>
					<SimpleData name="AFF_ISO">DE</SimpleData>
					<SimpleData name="SHAPE_Length">56.1150376523079</SimpleData>
					<SimpleData name="SHAPE_Area">45.8720539645817</SimpleData>
				</SchemaData>
			</ExtendedData>
			<MultiGeometry>
				<Polygon>
					<outerBoundaryIs>
						<LinearRing>
							<coordinates>
								7.69721813200005,47.54332702699999,0 7.656109088000049,47.5505540720001,0 7.62110911000002,47.5611001830001,0 7.66881806500004,47.57603606399999,0 7.67569122500004,47.6050000650001,0 7.64055412000005,47.603882087,0 7.58827317200007,47.584482172,0 7.58876317800002,47.5989181560001,0 7.56416329800004,47.6391642,0 7.52763613700006,47.662426999,0 7.51208217500005,47.6951360350001,0 7.526663333000039,47.788053958,0 7.55721822100003,47.862782145,0 7.58416318900004,47.903327088,0 7.623191175000039,47.9730539610001,0 7.619773202000031,47.99652714600009,0 7.58389111300005,48.0272181550001,0 7.57049113200003,48.0441090310001,0 7.56930911600006,48.0872181650001,0 7.57838219100006,48.11720006500011,0 7.60772706600005,48.164182141,0 7.69333613800006,48.2763821300001,0 7.74870916900005,48.335791215,0 7.74305406700006,48.3711090350001,0 7.73666320100006,48.3940270030001,0 7.74540016200007,48.424944994,0 7.80221806600002,48.5758271300001,0 7.88000011600008,48.664164176,0 7.96194512200003,48.7241641860001,0 8.09221817000002,48.803600153,0 8.10513619200003,48.8194451350001,0 8.111391271000061,48.8436091560001,0 8.12166329300004,48.8650001080001,0 8.13750022900007,48.893191131,0 8.19832719700003,48.95541804499999,0 8.226082193000019,48.96441803,0 8.15555401000006,48.976391076,0 8.04582718600005,49.0081911780001,0 7.93597329200003,49.0488821330001,0 7.82139116700006,49.046391199,0 7.73750021800004,49.042773234,0 7.66889115500004,49.042218017,0 7.65209113900005,49.0449361010001,0 7.62805402000004,49.0672180490001,0 7.48694501500006,49.1641641470001,0 7.42555411200004,49.1764540290001,0 7.37860908300007,49.1723641630001,0 7.36901817500006,49.168782241,0 7.36402708600002,49.151936124,0 7.28971816200004,49.1116642640001,0 7.15166318700005,49.121109161,0 7.09055408400008,49.12749114200011,0 7.01944503400006,49.1874911520001,0 6.92986327600005,49.22020018799999,0 6.846073246000059,49.2120450990001,0 6.85635415300004,49.1817641320001,0 6.83410020000002,49.1550642500001,0 6.72923605300002,49.16763609900001,0 6.715073151000071,49.187291159,0 6.68694516000005,49.2449911750001,0 6.59471807400007,49.3630539700001,0 6.54124505200002,49.4238821120001,0 6.508336191000069,49.44277324500009,0 6.46833607200006,49.461391129,0 6.413745072000041,49.4756911580001,0 6.36217323300002,49.4593912070001,0 6.36278226300004,49.48916423,0 6.35649114100005,49.5258642250001,0 6.420836162000059,49.66583614100011,0 6.47250020200005,49.69298210800009,0 6.505836037000051,49.7066270080001,0 6.524027114000031,49.8077001880001,0 6.48194509800004,49.811100056,0 6.42971813000003,49.80888220399999,0 6.395554163000039,49.8177732240001,0 6.32110911600006,49.8483271050001,0 6.31593614100007,49.85531811600001,0 6.25278218800003,49.882354112,0 6.23416329900004,49.8975002110001,0 6.174163289000029,49.95110918799999,0 6.14055403600003,49.9938910920001,0 6.13055409100002,50.0138820990001,0 6.11305401800007,50.0573540020001,0 6.118336126000031,50.0908271320001,0 6.12916319800007,50.11916416700009,0 6.134409096000071,50.1278449690001,0 6.13971819300002,50.1544451070001,0 6.16666333000006,50.2247181450001,0 6.28083608300005,50.283609061,0 6.349718061000029,50.31277322300009,0 6.398200162000021,50.323173153,0 6.373400122000019,50.443191111,0 6.33916323300002,50.4869360960001,0 6.31347320200007,50.497218176,0 6.26471818600004,50.497773226,0 6.24777316300003,50.58916413400001,0 6.27041821500006,50.61985397000011,0 6.16721821200002,50.656391189,0 6.054718151000029,50.72360919099999,0 6.01180012400005,50.7572732610001,0 6.008054084000041,50.80221803199999,0 6.016663305000069,50.841664274,0 6.05816328100002,50.8504822040001,0 6.08444507400003,50.8720822010001,0 6.080836161000041,50.914718093,0 6.02492719100007,50.9779821830001,0 5.943745105000059,50.984300127,0 5.90200909500004,50.97311816500011,0 5.86944506600003,51.01888218300009,0 5.86500014200004,51.0453450250001,0 5.90555413700002,51.06311818000011,0 6.00305411100004,51.0841641330001,0 6.09750022300005,51.13110010899999,0 6.08444507400003,51.174264228,0 6.07166334200002,51.2140911760001,0 6.077636118000039,51.24138215000001,0 6.143054023000049,51.2952732620001,0 6.22250021600007,51.36319115300009,0 6.22208212700002,51.4673540700001,0 6.20486318300004,51.51346426,0 6.158609159000039,51.5583270560001,0 6.13402704800006,51.5708271560001,0 6.093609176000031,51.60582713399999,0 6.02889116000006,51.7066641110001,0 5.95205408600003,51.7475270630001,0 5.98274509500004,51.767218165,0 5.96360921000007,51.80666424,0 6.00305411100004,51.829991077,0 6.12360918100006,51.888054029,0 6.182218130000021,51.895273194,0 6.351109121000041,51.8480540780001,0 6.46278222300003,51.8536091,0 6.52750023900006,51.8744450030001,0 6.59471807400007,51.89610903800011,0 6.68465405100005,51.9116641740001,0 6.72250018800003,51.89790913500011,0 6.74639112700004,51.90610915100009,0 6.78305407400006,51.92471815,0 6.82895404700002,51.97575405,0 6.79750011700003,52.00874505300001,0 6.72860908700005,52.035273106,0 6.73639118100004,52.0766641170001,0 6.759427165000029,52.11456423400009,0 6.85603614300004,52.120482193,0 6.875073290000051,52.14235409899999,0 6.90263617200003,52.17221814900011,0 6.964718080000069,52.190273104,0 7.042218162000041,52.2316641150001,0 7.05309116700005,52.23776412899999,0 7.02910014900004,52.278264144,0 7.03513612500007,52.3058270270001,0 7.05811813000003,52.337636015,0 7.070418070000071,52.355827091,0 7.06298214800006,52.3909641970001,0 6.98402713500008,52.457354067,0 6.95423617400007,52.437218054,0 6.758891226000061,52.4609641530001,0 6.70402714400007,52.4881910890001,0 6.68958227500002,52.5505539580001,0 6.72250018800003,52.559436093,0 6.75812713200003,52.56464511100009,0 6.72777324300006,52.6186091450001,0 6.71891809800007,52.6267821710001,0 6.720836045000061,52.629436049,0 6.76576321400006,52.65117317400011,0 6.90621809500004,52.64811813799999,0 7.03374506400007,52.633191142,0 7.053473214000061,52.649582121,0 7.06360911500008,52.721382174,0 7.065000175000021,52.7604180380001,0 7.06624505600007,52.7925001080001,0 7.07333614600003,52.81971816,0 7.09106320000006,52.83690910799999,0 7.133054021000021,52.8888821040001,0 7.17971808800007,52.93416416300001,0 7.19618215700007,52.962500193,0 7.21097319900002,53.0088821240001,0 7.20721810600003,53.1761091400001,0 7.20836324200008,53.2428091400001,0 7.25583616200004,53.3160361290001,0 7.32486331400003,53.3169360100001,0 7.35090018800003,53.30725407400011,0 7.33708228500006,53.323053961,0 7.22694508300003,53.3363910780001,0 7.183891270000059,53.3408271160001,0 7.12639124600003,53.3400001580001,0 7.08291817000003,53.33708208200009,0 7.049927166000031,53.341109084,0 7.018954022000059,53.375345135,0 7.01500011100006,53.4098541010001,0 7.02194502100002,53.4425001050001,0 7.032363223000061,53.482354043,0 7.09353602900006,53.5881911610001,0 7.18471806000002,53.6422180600001,0 7.232082184000029,53.66721809199999,0 7.29583611300006,53.6852732140001,0 7.341109119000069,53.688609044,0 7.46874505300002,53.68596421800001,0 7.513473235000051,53.6720821100001,0 7.581663203000061,53.6813912200001,0 7.69833611000007,53.7002731330001,0 7.84333616300006,53.71416412600011,0 7.88250010200005,53.71750012299999,0 7.907500134000029,53.7194450600001,0 7.94916322300003,53.71750012299999,0 7.98166321400004,53.715273219,0 8.014309218000051,53.708327136,0 8.024963288000039,53.6896180570001,0 8.052082265000021,53.6313821030001,0 8.12389120300003,53.584718036,0 8.161245155000071,53.5586821680001,0 8.16660018500005,53.5288821560001,0 8.129445052000049,53.50971810699999,0 8.09374501800005,53.5030539910001,0 8.06242721000007,53.5009001780001,0 8.07298220500007,53.468191141,0 8.09777319300002,53.444445042,0 8.210273253000031,53.40304497800011,0 8.23444515400007,53.400554044,0 8.24624502900002,53.4018000980001,0 8.28603610300007,53.4208912230001,0 8.311873152000031,53.4563181760001,0 8.31992715500007,53.50555397800011,0 8.305000159000031,53.52485398,0 8.268191199000061,53.52027310300009,0 8.233682233000019,53.523118088,0 8.236945140000049,53.5577821200001,0 8.24305403900007,53.5861090970001,0 8.26958225900006,53.6074911640001,0 8.30610908500006,53.616945113,0 8.332218210000059,53.6152732580001,0 8.49444508500005,53.55499111300001,0 8.513336051000071,53.5095821530001,0 8.49492721200005,53.48923608899999,0 8.484027050000069,53.4620822430001,0 8.48471822200003,53.4122181330001,0 8.48971819500002,53.37735410900011,0 8.50389115500008,53.3623540230001,0 8.50541817000004,53.42971803799999,0 8.49736332900005,53.4565270530001,0 8.504373282000071,53.4831912280001,0 8.56086328600003,53.515436074,0 8.565518092000049,53.5290539850001,0 8.51173611300004,53.6172180280001,0 8.49082712100005,53.648882176,0 8.48410014000007,53.686318102,0 8.548054062000061,53.8183270430001,0 8.57736323000006,53.85500021600009,0 8.60458228700003,53.8790180570001,0 8.659027107000041,53.892636135,0 8.682218157000021,53.89389107300011,0 8.711600248000019,53.870345134,0 8.756391127000031,53.846664246,0 8.775554002000041,53.84055400599999,0 8.79721820400005,53.83582711499999,0 8.85305408500005,53.82971804900009,0 8.907500246000041,53.828045021,0 9.020554015000069,53.846664246,0 9.10527326300007,53.863327134,0 9.12889112000005,53.86610020300001,0 9.21597322700006,53.8648539810001,0 9.283400106000039,53.85554504,0 9.322363215000051,53.82819120200001,0 9.35139125500007,53.7980450160001,0 9.37944514900005,53.760827019,0 9.412363230000039,53.72750006899999,0 9.55500025600003,53.604436128,0 9.57791822400003,53.5886090830001,0 9.672782257000049,53.55554499,0 9.695836179000031,53.5502821600001,0 9.764745146000051,53.5437270090001,0 9.80937324900003,53.53374500000011,0 9.829063345000071,53.541700097,0 9.77902707100003,53.56208220400001,0 9.74108219500005,53.56500011200009,0 9.72416332400007,53.565553988,0 9.69944509100003,53.568327057,0 9.672782257000049,53.57527314,0 9.575282283000041,53.613609115,0 9.55389116300006,53.62763606300009,0 9.43416321900003,53.744018118,0 9.41721819600002,53.7711091,0 9.407773300000031,53.7922180850001,0 9.39374517900006,53.822636011,0 9.332773204000031,53.85500021600009,0 9.282363264000031,53.8755539840001,0 9.23444509700005,53.886382229,0 9.21305414500006,53.8897180590001,0 9.063054120000061,53.89804497699999,0 8.984163312000019,53.891873214,0 8.947500197000069,53.9072181320001,0 8.92750013700004,53.91971806400009,0 8.90680018900002,53.93471815,0 8.88305409000003,53.96110907600009,0 8.850000222000061,54.008891121,0 8.844273203000061,54.0347539860001,0 8.88569120400007,54.0447180570001,0 8.926663288000039,54.037218098,0 8.95305404600003,54.0263821410001,0 8.975000215000019,54.0181911770001,0 9.00180017700006,54.027082197,0 9.01194513000007,54.0469360760001,0 9.017218185000051,54.08500014300009,0 8.97110916800005,54.1316642090001,0 8.852363248000071,54.1279822070001,0 8.827363216000039,54.151664269,0 8.812773173000039,54.175000158,0 8.819863257000071,54.198609129,0 8.84562704800004,54.254164216,0 8.88360913900004,54.2941641670001,0 8.830000163000021,54.29332715,0 8.690209128000051,54.2675641970001,0 8.66250023300006,54.268191163,0 8.637636155000051,54.2761001600001,0 8.609582260000019,54.3050001240001,0 8.60048219600003,54.3263821910001,0 8.62194506500003,54.3786091590001,0 8.64242708300003,54.39708220300011,0 8.76860909200008,54.410827016,0 8.826527205000049,54.4147180630001,0 8.84492715900006,54.405409121,0 8.886945137000049,54.414164187,0 8.99471814000003,54.45194511300009,0 9.013954104000049,54.4749911550001,0 9.011245073000049,54.5034641450001,0 8.96402713000003,54.54235399700009,0 8.94360914900005,54.5479091870001,0 8.918891252000041,54.56110917600011,0 8.85082718100006,54.620827051,0 8.809582182000041,54.676936014,0 8.75444501700002,54.7116642510001,0 8.73444512500004,54.721109147,0 8.696945161000031,54.746936137,0 8.651318103000049,54.8067271030001,0 8.641391248000049,54.832218147,0 8.576182220000019,54.857382129,0 8.54560922800005,54.8706091070001,0 8.390109166000061,54.8669359900001,0 8.30090023500003,54.8564540850001,0 8.29444516400002,54.82527323699999,0 8.29660015100006,54.77860917,0 8.290836084000031,54.7428090560001,0 8.280554003000081,54.774991206,0 8.282082192000081,54.82666413,0 8.29333607000007,54.9005539600001,0 8.30721817800003,54.9330541190001,0 8.37333613900006,55.033336047,0 8.388191219000021,55.0491642650001,0 8.40805415000005,55.0565270960001,0 8.45423609000005,55.0509732470001,0 8.438327070000071,55.0241642330001,0 8.40763606100006,55.0093001010001,0 8.37194507900006,54.994164228,0 8.353191241000051,54.96610916,0 8.420418128000049,54.9196450850001,0 8.461218215000031,54.89997326100009,0 8.490463178000031,54.9005539600001,0 8.60048219600003,54.9107731760001,0 8.664545082000069,54.9130911070001,0 8.692773153000079,54.89582706900011,0 8.71944503900005,54.891109063,0 8.75889111400005,54.8980539730001,0 8.78582719800005,54.9061091500001,0 8.835091163000071,54.91379116400001,0 8.92000017800007,54.908054087,0 8.94110916300002,54.90554504800009,0 9.16889123800007,54.865000105,0 9.22889124800002,54.84958209700011,0 9.23083618500004,54.829300071,0 9.24833609000007,54.81263600900009,0 9.35083603700002,54.81055411200001,0 9.377218078000061,54.82763609600001,0 9.41471821000005,54.83332707300011,0 9.44535406600005,54.8254001390001,0 9.43944515900006,54.807982209,0 9.578336145000041,54.8255540310001,0 9.66055406600003,54.8122180880001,0 9.78555405900005,54.7861091300001,0 9.90215404400004,54.7911091030001,0 9.93583605100002,54.7819450000001,0 9.972009160000029,54.7607540400001,0 10.0373631950001,54.668236101,0 10.0400001420001,54.6330731790001,0 10.032500182,54.5552731920001,0 10.0043001070001,54.523736114,0 9.97055406200008,54.507500199,0 9.89305414700004,54.48194511800009,0 9.87110915100004,54.4774911420001,0 9.845554069000061,54.476727048,0 9.86603608800004,54.4572910900001,0 9.893327062000029,54.453891223,0 10.0066633010001,54.4742361140001,0 10.106109218,54.489436025,0 10.1269451210001,54.48971815900011,0 10.3683271690001,54.435553966,0 10.609718102,54.3605449840001,0 10.646245095,54.33742702500011,0 10.690554015,54.3093002080001,0 10.772500194,54.30721814300011,0 10.79500024,54.31235406999999,0 10.8318732380001,54.330344987,0 10.8852731700001,54.36193604499999,0 10.9464540220001,54.3845091810001,0 10.9794450260001,54.380554096,0 10.958263286,54.3789539910001,0 10.986945153,54.37193599099999,0 11.0169451580001,54.36999122200011,0 11.044718091,54.36971813900001,0 11.073891138,54.3763911400001,0 11.093954061,54.20548212199999,0 11.0600001450001,54.17721817700001,0 10.8805541580001,54.09076421,0 10.8322180700001,54.0908270740001,0 10.801391274,54.0894360140001,0 10.7622181140001,54.0565181000001,0 10.7573633150001,54.035827037,0 10.7770822460001,54.006664217,0 10.7955541160001,53.995554004,0 10.8222181240001,53.9941641170001,0 10.861391116,53.993891202,0 10.8797912370001,53.985900063,0 10.890136182,53.95430012,0 10.863609135,53.9169361100001,0 10.818536121,53.8900540060001,0 10.898891248,53.93110907099999,0 10.9044360450001,53.95734509800009,0 10.9647181890001,53.98027312400011,0 11.013054111,53.99528209500011,0 11.0553912710001,54.007354047,0 11.0947181550001,54.01360912600011,0 11.183536154,54.01193609799999,0 11.251627048,53.93878220000001,0 11.41277316,53.91971806400009,0 11.480836058,53.9602732320001,0 11.492773229,53.9945822060001,0 11.52208223,54.0332641860001,0 11.544718231,54.0263821410001,0 11.5547181760001,54.0269360170001,0 11.5768091850001,54.0343001900001,0 11.6263541120001,54.082391192,0 11.626109193,54.11117313800001,0 11.6875000960001,54.15325398,0 11.7475001060001,54.1563911590001,0 11.9861090850001,54.1733360150001,0 12.1297180770001,54.1911091700001,0 12.3269450970001,54.2866642070001,0 12.3498632320001,54.3031911410001,0 12.436945172,54.39110909200011,0 12.4805540350001,54.4441641920001,0 12.526945019,54.4741641970001,0 12.540554045,54.458882143,0 12.638609236,54.4489450620001,0 12.6604451000001,54.446109129,0 12.680773227,54.44494505000011,0 12.803336098,54.442500216,0 12.900691233,54.442354036,0 12.9215271350001,54.4274642560001,0 12.880554046,54.4119449940001,0 12.758336174,54.413045035,0 12.7292360500001,54.4233641640001,0 12.703800159,54.4296732220001,0 12.6706911380001,54.4146181510001,0 12.6432181100001,54.41389110400011,0 12.463891146,54.3951360930001,0 12.425836132,54.372500093,0 12.3656911150001,54.305200116,0 12.374373258,54.2624270960001,0 12.40819122,54.24874497999999,0 12.451600259,54.24971811900009,0 12.42395406,54.258953971,0 12.419163299,54.2814540160001,0 12.4801361130001,54.3319360400001,0 12.549718147,54.3605449840001,0 12.5819450560001,54.368327079,0 12.624718076,54.3727731750001,0 12.6827822010001,54.376109173,0 12.764718155,54.372500093,0 13.0238911280001,54.3997181440001,0 13.1186091490001,54.276454044,0 13.2125002110001,54.2519361380001,0 13.2851361080001,54.234864213,0 13.379163292,54.174436056,0 13.454582148,54.09708215300001,0 13.48708214,54.087354116,0 13.499718194,54.086109069,0 13.4840271040001,54.119445071,0 13.7108271550001,54.1708271430001,0 13.788891172,54.1097180400001,0 13.799027073,54.0841641320001,0 13.786109219,54.050000165,0 13.8297180820001,53.98638219,0 13.865273277,53.904164269,0 13.8211091970001,53.8763911680001,0 13.808536174,53.85478211899999,0 13.959163333,53.77499109400001,0 14.223891161,53.7008270090001,0 14.256391153,53.697354051,0 14.275627118,53.69906412700001,0 14.309718162,53.55554499,0 14.413263333,53.3389540960001,0 14.412773159,53.30444513,0 14.3916911640001,53.14416419800011,0 14.380273167,53.110136018,0 14.347363301,53.048882243,0 14.293736052,53.018773106,0 14.2254181760001,52.988882233,0 14.2002821900001,52.984718103,0 14.168891124,52.973327097,0 14.1476361260001,52.95923611199999,0 14.1491633090001,52.86278219899999,0 14.205418117,52.8186090660001,0 14.35500022,52.748327143,0 14.383336082,52.73082707,0 14.448327181,52.67528221,0 14.4787451070001,52.6525001970001,0 14.5144451420001,52.639164253,0 14.55458222,52.6272180300001,0 14.595782292,52.60682703800011,0 14.639582263,52.5729820870001,0 14.633536061,52.4905541150001,0 14.585136102,52.4398539950001,0 14.563191273,52.43319122,0 14.543954135,52.42187313600001,0 14.5344450330001,52.396245132,0 14.5798632140001,52.2883271220001,0 14.59889114,52.27277316,0 14.6558361140001,52.26027322699999,0 14.6925002350001,52.2544360700001,0 14.7079180750001,52.24561814,0 14.760763293,52.0698642150001,0 14.717554079,51.9431090510001,0 14.689863288,51.8969450490001,0 14.645418079,51.865273189,0 14.6101361340001,51.8481912060001,0 14.6009732050001,51.8200642210001,0 14.667982162,51.723882217,0 14.698054084,51.7022181820001,0 14.7220821510001,51.690964136,0 14.756109157,51.66673607700011,0 14.7592361100001,51.60749110900011,0 14.715000113,51.554718144,0 14.7394450950001,51.52652712100009,0 14.8375001200001,51.4986001280001,0 14.9211091010001,51.481945119,0 14.9530540430001,51.469991184,0 14.9755540890001,51.44082702200009,0 14.981836157,51.3680451130001,0 14.971663209,51.3572180410001,0 14.9833361830001,51.333609069,0 15.002636185,51.316800168,0 15.033818206,51.286664209,0 15.0322181010001,51.23916413100011,0 14.994445054,51.11860906099999,0 14.978891259,51.0783271430001,0 14.9655541430001,51.05221801800009,0 14.9311092140001,51.00249120400009,0 14.89694508,50.95944510200011,0 14.826182203,50.8830541120001,0 14.8283361850001,50.86582712199999,0 14.8250001870001,50.85638222600011,0 14.802918231,50.81971810499999,0 14.7715271650001,50.8183270440001,0 14.739718178,50.8238822340001,0 14.717782234,50.829164174,0 14.6516632670001,50.8472181230001,0 14.6192361980001,50.85825407200009,0 14.631391132,50.8811001230001,0 14.6283360950001,50.92360911300009,0 14.5972181120001,50.982500197,0 14.569163212,51.00555411900011,0 14.4916632960001,51.03666422300011,0 14.3062450360001,51.0524911000001,0 14.285554141,51.0375000660001,0 14.258054122,50.9951360840001,0 14.321245123,50.94610915800009,0 14.368327111,50.9350001190001,0 14.3113911900001,50.88221810099999,0 14.155554007,50.8430451090001,0 13.9906911910001,50.814445049,0 13.903609085,50.7881910850001,0 13.8911091520001,50.768882197,0 13.7341632120001,50.730827015,0 13.669445028,50.725827043,0 13.634718133,50.72221813,0 13.5822180820001,50.709445116,0 13.541109206,50.68971813899999,0 13.510827066,50.6505540310001,0 13.5184732050001,50.64187323,0 13.463400246,50.6016642340001,0 13.436663316,50.60527314600009,0 13.414863327,50.6113822130001,0 13.3783361660001,50.6294359940001,0 13.2495822540001,50.58916413400001,0 13.223227203,50.55141807700011,0 13.2061091780001,50.520409059,0 13.1872182120001,50.502773199,0 13.079445042,50.49805402,0 13.0152731910001,50.4393000640001,0 12.9919451810001,50.4211091540001,0 12.9855541470001,50.41832703299999,0 12.9447181850001,50.4100001150001,0 12.917218167,50.4147181210001,0 12.898336086,50.42527311600001,0 12.855836148,50.44221813899999,0 12.825136087,50.4530450440001,0 12.7722181140001,50.445000093,0 12.7404181800001,50.43151813700009,0 12.6713911950001,50.41194505200011,0 12.6209732090001,50.41194505200011,0 12.5154182260001,50.39249115800001,0 12.4861092250001,50.3730540270001,0 12.3986091960001,50.309164143,0 12.3255540370001,50.2361091510001,0 12.3230540500001,50.2066641960001,0 12.2811091630001,50.21846423900011,0 12.1826360490001,50.3145822050001,0 12.093700201,50.3225361290001,0 12.1220821630001,50.30846425400011,0 12.209163264,50.163609041,0 12.1938181790001,50.136318068,0 12.206145108,50.1062090980001,0 12.2655540270001,50.0661090670001,0 12.307500255,50.0474911840001,0 12.429445045,49.9938910920001,0 12.471109138,49.98583608300001,0 12.491391165,49.975827085,0 12.5459732800001,49.909582222,0 12.468473198,49.7834731350001,0 12.455554003,49.6955451270001,0 12.476109111,49.690827121,0 12.515482263,49.67721809500011,0 12.5547181200001,49.61666420900009,0 12.578609226,49.560554073,0 12.5977732740001,49.5275002050001,0 12.6744450580001,49.42500009,0 12.797218147,49.33985403499999,0 12.887200224,49.3403820950001,0 12.9590271000001,49.3349271530001,0 13.0311091200001,49.28777324700011,0 13.1730541360001,49.167218178,0 13.318473284,49.10082713400001,0 13.3961091530001,49.049164268,0 13.4025451140001,49.006191088,0 13.5097181400001,48.9725001960001,0 13.5648271420001,48.973664275,0 13.595345148,48.9574270200001,0 13.626109248,48.94763611800001,0 13.6519451230001,48.9044361250001,0 13.672218097,48.88944509099999,0 13.6994450330001,48.8793001380001,0 13.728127068,48.881318165,0 13.7456271410001,48.870754117,0 13.7616632300001,48.8459641360001,0 13.780136107,48.834018079,0 13.8120091320001,48.8002091700001,0 13.8182632050001,48.7798540530001,0 13.833609129,48.7736090330001,0 13.8147181630001,48.738054005,0 13.825418165,48.63110913400001,0 13.8037450780001,48.582636085,0 13.726000244,48.515591086,0 13.6769451550001,48.5322911900001,0 13.6547181920001,48.55166411500011,0 13.602773191,48.5680540880001,0 13.51860916,48.584582196,0 13.443227184,48.56023612000011,0 13.4575002240001,48.5155540380001,0 13.4379180870001,48.4294360170001,0 13.4218732800001,48.39103600400011,0 13.3950002280001,48.36610017700011,0 13.3350002180001,48.3286090980001,0 13.313054048,48.315827031,0 13.285273236,48.30527320900011,0 13.2580540110001,48.2988821750001,0 13.154445138,48.292218059,0 13.017773177,48.2594361010001,0 12.871245104,48.202909048,0 12.759718182,48.12172713100011,0 12.76624517,48.082218024,0 12.799163251,48.0545822190001,0 12.837500232,48.0300001080001,0 12.857045154,48.01193610100011,0 12.865345082,47.994600146,0 12.918891194,47.9577732490001,0 12.966663349,47.906945052,0 13.0088912100001,47.854164208,0 12.970554061,47.810554004,0 12.944163303,47.7887451300001,0 12.913954086,47.72500008499999,0 12.9937451100001,47.714164129,0 13.023054111,47.724164242,0 13.058336056,47.7061091200001,0 13.0775001050001,47.6873541080001,0 13.100136105,47.6429181190001,0 13.053336084,47.4975641830001,0 13.0125001220001,47.46979108200001,0 12.9578732470001,47.4770181260001,0 12.8066632100001,47.5547180340001,0 12.788191172,47.5835360230001,0 12.805973212,47.61485399800011,0 12.827845118,47.621245032,0 12.736945054,47.6827091930001,0 12.6658361720001,47.6850001350001,0 12.603400214,47.6722911580001,0 12.576391207,47.644164173,0 12.5666633380001,47.6419360950001,0 12.5144450870001,47.6332539520001,0 12.4550001260001,47.66777314400009,0 12.2011090930001,47.65749106400009,0 12.207318072,47.633373143,0 12.201554005,47.6129912040001,0 12.141391218,47.6111091320001,0 12.1111092460001,47.614718044,0 12.060000256,47.62055402800011,0 12.0063911120001,47.624445075,0 11.9200001770001,47.6141641680001,0 11.683054167,47.5847180390001,0 11.579863215,47.524091062,0 11.5544450940001,47.515545042,0 11.505282214,47.5091642340001,0 11.4575001690001,47.5122180970001,0 11.2963912720001,47.4288910820001,0 11.104027097,47.396527045,0 11.028609079,47.395273113,0 11.0083361050001,47.39582715600011,0 10.9766632400001,47.4002732530001,0 10.9094450700001,47.5180540800001,0 10.6908361500001,47.5538910750001,0 10.569445069,47.540273165,0 10.4818002010001,47.5865181360001,0 10.433682209,47.58048216,0 10.43639124,47.5291641260001,0 10.466182201,47.4829090960001,0 10.473745024,47.4376360900001,0 10.4297180720001,47.3961091240001,0 10.336663189,47.3127001340001,0 10.274445159,47.288891171,0 10.228891192,47.2760360130001,0 10.173336105,47.2747180430001,0 10.2116631960001,47.322491203,0 10.2317361770001,47.373745032,0 10.0430540040001,47.4952821260001,0 9.95500010000006,47.539718115,0 9.810973186000069,47.59416410799999,0 9.775418159000029,47.5912450270001,0 9.74624511200005,47.565827073,0 9.732791152000059,47.5411180610001,0 9.69252717100005,47.5295181770001,0 9.651509154000051,47.5295181770001,0 9.608773183000039,47.5295181770001,0 9.57791822400003,47.53741812099999,0 9.566727209000019,47.540454046,0 9.47831808000007,47.5758540090001,0 9.26110022000006,47.662845088,0 9.082636090000049,47.6854180560001,0 9.03333608200006,47.6883270800001,0 9.00083609100005,47.6808271200001,0 8.97944513800007,47.67013600300001,0 8.947773279000049,47.65749106400009,0 8.92597329000006,47.65180008699999,0 8.89889119300005,47.650827115,0 8.883300182000029,47.6541450080001,0 8.85583603800006,47.69888224300009,0 8.83528227100004,47.71804511700001,0 8.80548225800004,47.7360360340001,0 8.774373159000049,47.715973111,0 8.800136112000081,47.6817270010001,0 8.753336091000049,47.693609187,0 8.72021818600007,47.6966270080001,0 8.73225409600008,47.708291097,0 8.73645410000006,47.757073103,0 8.68555415500003,47.7866642380001,0 8.661391139000051,47.798045019,0 8.61166331900006,47.80388217600009,0 8.56291819400008,47.8066641300001,0 8.47708214000005,47.7706180910001,0 8.40694505700003,47.70180015099999,0 8.41902706700006,47.67388221,0 8.48541811100006,47.6470820810001,0 8.522082232000059,47.65166413200009,0 8.540554102000041,47.66430018599999,0 8.580554053000069,47.6686091550001,0 8.610254154000071,47.6677360960001,0 8.624963220000041,47.656209135,0 8.593054153000031,47.600553969,0 8.576418087000039,47.59137310200001,0 8.569427077000061,47.59853610900009,0 8.56291819400008,47.618400046,0 8.523473292000061,47.632700076,0 8.47124515100006,47.607354039,0 8.435836136000029,47.573609167,0 8.39083604500007,47.579991148,0 8.28910019200003,47.6090911050001,0 8.24083618700007,47.61943605,0 8.195763341000029,47.6203449830001,0 8.101836069000059,47.57107313900011,0 8.03333613800004,47.5561090940001,0 7.91770912500004,47.55422702200009,0 7.76971807400002,47.55332714100011,0 7.69721813200005,47.54332702699999,0 
							</coordinates>
						</LinearRing>
					</outerBoundaryIs>
				</Polygon>
				<Polygon>
					<outerBoundaryIs>
						<LinearRing>
							<coordinates>
								13.2680541240001,54.2550000590001,0 13.253336173,54.257218079,0 13.1561091130001,54.30554511499999,0 13.118818194,54.336727136,0 13.133954067,54.3713821150001,0 13.154027216,54.375273162,0 13.2005541550001,54.3727731750001,0 13.2201361250001,54.36971813900001,0 13.2358361,54.37166425,0 13.263891168,54.38000005200011,0 13.238982164,54.411473261,0 13.207791258,54.428109159,0 13.1646361910001,54.4343451280001,0 13.228609223,54.4650000940001,0 13.232227188,54.48581806,0 13.1672360900001,54.5133732310001,0 13.146963283,54.5456091930001,0 13.231391177,54.5525001230001,0 13.25561823,54.551318107,0 13.3039732620001,54.5502821040001,0 13.337763228,54.56640016800001,0 13.367400129,54.5804360010001,0 13.377800227,54.5580821350001,0 13.3949541270001,54.541964238,0 13.4204270660001,54.521691097,0 13.44746323,54.48893612799999,0 13.4838541010001,54.4837359950001,0 13.5030912400001,54.49310009,0 13.5166092380001,54.5133732310001,0 13.502573238,54.5497642700001,0 13.459418171,54.5508001050001,0 13.4261450330001,54.5700451230001,0 13.383518194,54.578354104,0 13.374673274,54.6100732370001,0 13.355436136,54.6043540970001,0 13.32971811,54.5827732110001,0 13.3105540620001,54.57332714100001,0 13.284136147,54.5643001660001,0 13.2487450690001,54.55778223099999,0 13.2265271580001,54.64118216800009,0 13.2447180680001,54.6566642130001,0 13.263336119,54.666664159,0 13.2786091200001,54.6713912170001,0 13.292218145,54.673336154,0 13.364445173,54.6794450530001,0 13.3838911880001,54.6808270610001,0 13.42708213,54.682500089,0 13.4416002570001,54.6747822,0 13.4255541090001,54.6586091500001,0 13.3938911340001,54.65069110200011,0 13.3843002250001,54.6419360360001,0 13.391309173,54.606953995,0 13.40742707,54.588754034,0 13.4334270630001,54.577836102,0 13.456300103,54.5731539710001,0 13.48177321,54.5747180340001,0 13.516091236,54.5768000990001,0 13.593054039,54.584718147,0 13.617773277,54.5861090400001,0 13.638473226,54.5849270240001,0 13.674509207,54.5665911080001,0 13.679163342,54.5425001770001,0 13.6765270660001,54.5294361430001,0 13.668609185,54.52151809400001,0 13.6441631970001,54.5141641480001,0 13.5873632300001,54.483191171,0 13.5773632840001,54.4673540680001,0 13.5772821470001,54.456936033,0 13.583609143,54.4416642050001,0 13.6190272100001,54.40332705700011,0 13.631109221,54.401109037,0 13.6463912740001,54.4013821200001,0 13.671391139,54.40152712700009,0 13.702500237,54.3880540550001,0 13.710691201,54.38097319100011,0 13.731109181,54.3547180530001,0 13.7438912490001,54.3311090820001,0 13.7291632390001,54.2751360730001,0 13.7130540590001,54.27193603000009,0 13.6953451090001,54.2820090660001,0 13.7108360400001,54.296945115,0 13.712500183,54.322636151,0 13.686945101,54.348745109,0 13.506391195,54.342218121,0 13.4694451070001,54.3283271280001,0 13.3576360500001,54.27319113600001,0 13.3575002630001,54.25971806500009,0 13.40694511,54.2651361270001,0 13.4209732310001,54.26027311500011,0 13.427636174,54.24791802200009,0 13.426945169,54.2358271260001,0 13.395418149,54.221664225,0 13.318609238,54.2486001410001,0 13.2680541240001,54.2550000590001,0 
							</coordinates>
						</LinearRing>
					</outerBoundaryIs>
				</Polygon>
				<Polygon>
					<outerBoundaryIs>
						<LinearRing>
							<coordinates>
								14.2158271000001,53.899991087,0 14.218891188,53.8690181110001,0 14.1934732340001,53.87500010800009,0 14.082500189,53.8733270800001,0 14.0393732850001,53.869782205,0 14.000273216,53.8518001730001,0 13.9491632200001,53.8436090420001,0 13.885273168,53.8401360840001,0 13.829191195,53.8595091770001,0 13.8719451040001,53.87805397000011,0 13.9291633280001,53.8975001530001,0 13.939627128,53.914864272,0 13.9575732860001,53.94110918400001,0 13.9820631960001,53.96255411600001,0 14.0126911730001,53.94942704900009,0 14.0396001,53.94264508399999,0 14.0560001310001,53.98486422700011,0 14.047691151,54.0054270480001,0 14.0140002580001,54.0141732280001,0 14.0032821510001,54.033200149,0 13.9798822240001,54.056609128,0 13.9540731710001,54.060545102,0 13.9241001560001,54.05901808700001,0 13.91914511,54.031573221,0 13.900418094,54.01193609799999,0 13.8590270830001,53.9994359980001,0 13.822773172,54.0366642220001,0 13.808682187,54.071618099,0 13.810809179,54.1044731480001,0 13.7580541500001,54.147353959,0 13.7684731910001,54.165827171,0 13.812773226,54.1667361040001,0 13.8270821410001,54.1425642040001,0 13.86610912,54.106664177,0 13.892382196,54.09030018800009,0 13.929791133,54.0795822480001,0 13.9654450670001,54.073236142,0 14.0013181040001,54.0653641930001,0 14.105000235,53.9986001550001,0 14.184027165,53.94638223900011,0 14.214163292,53.93249107900001,0 14.225554131,53.92860019900009,0 14.2158271000001,53.899991087,0 
							</coordinates>
						</LinearRing>
					</outerBoundaryIs>
				</Polygon>
				<Polygon>
					<outerBoundaryIs>
						<LinearRing>
							<coordinates>
								11.2437450410001,54.4944450500001,0 11.273927101,54.45873613100009,0 11.302218204,54.42401812,0 11.3125001170001,54.40833608200009,0 11.1391631970001,54.4066642280001,0 11.123891202,54.40694502100009,0 11.0210450820001,54.43875400899999,0 11.009027109,54.44721805500009,0 11.0061092010001,54.45763609000009,0 11.011391141,54.4769449770001,0 11.018609133,54.490827085,0 11.0287450330001,54.50458212400011,0 11.0438911320001,54.518327104,0 11.0668002150001,54.5345821290001,0 11.184163288,54.5200001320001,0 11.2322180800001,54.5030541030001,0 11.2437450410001,54.4944450500001,0 
							</coordinates>
						</LinearRing>
					</outerBoundaryIs>
				</Polygon>
				<Polygon>
					<outerBoundaryIs>
						<LinearRing>
							<coordinates>
								8.56360919800005,54.6841642320001,0 8.488336187000071,54.6855541190001,0 8.47833607300004,54.6869450120001,0 8.398336172000031,54.7102001000001,0 8.40986330000004,54.7326361080001,0 8.425836190000039,54.7422181320001,0 8.444718103000071,54.74832703000001,0 8.46166329400006,54.75193611,0 8.53860916600007,54.75527311399999,0 8.55110909800004,54.753882221,0 8.569718096000029,54.750273141,0 8.585136104000069,54.7445090740001,0 8.59486330300007,54.7198540410001,0 8.57000023100005,54.6873540490001,0 8.56360919800005,54.6841642320001,0 
							</coordinates>
						</LinearRing>
					</outerBoundaryIs>
				</Polygon>
				<Polygon>
					<outerBoundaryIs>
						<LinearRing>
							<coordinates>
								8.678591140000041,47.69334499000011,0 8.67395410300003,47.7028540910001,0 8.705482129000069,47.71103600200009,0 8.710254115000049,47.696809063,0 8.678591140000041,47.69334499000011,0 
							</coordinates>
						</LinearRing>
					</outerBoundaryIs>
				</Polygon>
				<Polygon>
					<outerBoundaryIs>
						<LinearRing>
							<coordinates>
								10.9794450260001,54.380554096,0 10.9950001620001,54.381944989,0 11.0164541460001,54.3791642090001,0 10.9945822400001,54.377491181,0 10.9794450260001,54.380554096,0 
							</coordinates>
						</LinearRing>
					</outerBoundaryIs>
				</Polygon>
			</MultiGeometry>
		</Placemark>
	</Folder>
</Document>
</kml>
