<?xml version="1.0" encoding="UTF-8"?>
<kml xmlns="http://www.opengis.net/kml/2.2" xmlns:gx="http://www.google.com/kml/ext/2.2" xmlns:kml="http://www.opengis.net/kml/2.2" xmlns:atom="http://www.w3.org/2005/Atom">
<Document id="root_doc">
	<name>switzerland.kml</name>
	<atom:link rel="app" href="https://www.google.com/earth/about/versions/#earth-pro" title="Google Earth Pro 7.3.7.1155"></atom:link>
	<Schema name="World_Countries__Generalized_" id="World_Countries__Generalized_">
		<SimpleField type="int" name="FID">
		</SimpleField>
		<SimpleField type="string" name="COUNTRY">
		</SimpleField>
		<SimpleField type="string" name="ISO">
		</SimpleField>
		<SimpleField type="string" name="COUNTRYAFF">
		</SimpleField>
		<SimpleField type="string" name="AFF_ISO">
		</SimpleField>
		<SimpleField type="float" name="SHAPE_Length">
		</SimpleField>
		<SimpleField type="float" name="SHAPE_Area">
		</SimpleField>
	</Schema>
	<StyleMap id="m_ylw-pushpin">
		<Pair>
			<key>normal</key>
			<styleUrl>#s_ylw-pushpin</styleUrl>
		</Pair>
		<Pair>
			<key>highlight</key>
			<styleUrl>#s_ylw-pushpin_hl</styleUrl>
		</Pair>
	</StyleMap>
	<Style id="s_ylw-pushpin">
		<IconStyle>
			<scale>1.1</scale>
			<Icon>
				<href>http://maps.google.com/mapfiles/kml/pushpin/ylw-pushpin.png</href>
			</Icon>
			<hotSpot x="20" y="2" xunits="pixels" yunits="pixels"/>
		</IconStyle>
	</Style>
	<Style id="s_ylw-pushpin_hl">
		<IconStyle>
			<scale>1.3</scale>
			<Icon>
				<href>http://maps.google.com/mapfiles/kml/pushpin/ylw-pushpin.png</href>
			</Icon>
			<hotSpot x="20" y="2" xunits="pixels" yunits="pixels"/>
		</IconStyle>
	</Style>
	<Folder>
		<name>World_Countries__Generalized_</name>
		<Placemark>
			<styleUrl>#m_ylw-pushpin</styleUrl>
			<ExtendedData>
				<SchemaData schemaUrl="#World_Countries__Generalized_">
					<SimpleData name="FID">159</SimpleData>
					<SimpleData name="COUNTRY">Switzerland</SimpleData>
					<SimpleData name="ISO">CH</SimpleData>
					<SimpleData name="COUNTRYAFF">Switzerland</SimpleData>
					<SimpleData name="AFF_ISO">CH</SimpleData>
					<SimpleData name="SHAPE_Length">15.5315226247949</SimpleData>
					<SimpleData name="SHAPE_Area">4.88927661224314</SimpleData>
				</SchemaData>
			</ExtendedData>
			<MultiGeometry>
				<Polygon>
					<outerBoundaryIs>
						<LinearRing>
							<coordinates>
								6.44694512000007,46.8394360870001,0 6.460282237000059,46.89582701700001,0 6.52833608200007,46.9716641300001,0 6.56639126400006,46.9800001,0 6.632500173000039,47.0000001600001,0 6.67833610800005,47.0341641270001,0 6.69944509300007,47.06389121699999,0 6.79333615500008,47.130827084,0 6.849718200000039,47.1649912190001,0 6.83895416000007,47.171518039,0 6.97166332500007,47.291936148,0 7.000836036000071,47.3650001930001,0 6.98083614400002,47.3616641950001,0 6.93139113000007,47.3588911260001,0 6.88166330900003,47.36367317,0 6.99055412300004,47.497218178,0 7.02500022400005,47.50804508200011,0 7.14641812700006,47.49905398200009,0 7.18291813100006,47.4440180710001,0 7.24770923600005,47.42166420500009,0 7.27555408700005,47.4324911100001,0 7.30833604500003,47.4402732040001,0 7.340282161000061,47.4390180980001,0 7.35590016100002,47.4340181250001,0 7.35805414200007,47.433609088,0 7.38541820600005,47.433327121,0 7.41555399800006,47.445273177,0 7.43305407100007,47.460545004,0 7.45277316900007,47.46999107400009,0 7.49694512800005,47.494991106,0 7.50221818300002,47.5005451230001,0 7.502573241000049,47.54992710600001,0 7.52166319300005,47.55971817400011,0 7.546663225000029,47.5655539910001,0 7.554027062000049,47.57888222300009,0 7.57708215800005,47.58430916999999,0 7.58827317200007,47.584482172,0 7.64055412000005,47.603882087,0 7.67569122500004,47.6050000650001,0 7.66881806500004,47.57603606399999,0 7.62110911000002,47.5611001830001,0 7.656109088000049,47.5505540720001,0 7.69721813200005,47.54332702699999,0 7.76971807400002,47.55332714100011,0 7.91770912500004,47.55422702200009,0 8.03333613800004,47.5561090940001,0 8.101836069000059,47.57107313900011,0 8.195763341000029,47.6203449830001,0 8.24083618700007,47.61943605,0 8.28910019200003,47.6090911050001,0 8.39083604500007,47.579991148,0 8.435836136000029,47.573609167,0 8.47124515100006,47.607354039,0 8.523473292000061,47.632700076,0 8.56291819400008,47.618400046,0 8.569427077000061,47.59853610900009,0 8.576418087000039,47.59137310200001,0 8.593054153000031,47.600553969,0 8.624963220000041,47.656209135,0 8.610254154000071,47.6677360960001,0 8.580554053000069,47.6686091550001,0 8.540554102000041,47.66430018599999,0 8.522082232000059,47.65166413200009,0 8.48541811100006,47.6470820810001,0 8.41902706700006,47.67388221,0 8.40694505700003,47.70180015099999,0 8.47708214000005,47.7706180910001,0 8.56291819400008,47.8066641300001,0 8.61166331900006,47.80388217600009,0 8.661391139000051,47.798045019,0 8.68555415500003,47.7866642380001,0 8.73645410000006,47.757073103,0 8.73225409600008,47.708291097,0 8.72021818600007,47.6966270080001,0 8.753336091000049,47.693609187,0 8.800136112000081,47.6817270010001,0 8.774373159000049,47.715973111,0 8.80548225800004,47.7360360340001,0 8.83528227100004,47.71804511700001,0 8.85583603800006,47.69888224300009,0 8.883300182000029,47.6541450080001,0 8.89889119300005,47.650827115,0 8.92597329000006,47.65180008699999,0 8.947773279000049,47.65749106400009,0 8.97944513800007,47.67013600300001,0 9.00083609100005,47.6808271200001,0 9.03333608200006,47.6883270800001,0 9.082636090000049,47.6854180560001,0 9.26110022000006,47.662845088,0 9.47831808000007,47.5758540090001,0 9.566727209000019,47.540454046,0 9.559800237000051,47.5020910810001,0 9.59660014500002,47.4694360240001,0 9.649654072000031,47.4586091200001,0 9.67034513500005,47.39069106099999,0 9.637363184000041,47.369582076,0 9.61096320600006,47.36222712400011,0 9.54000017000004,47.284164113,0 9.53357326200006,47.2745450400001,0 9.496809229000061,47.223327086,0 9.48500013300003,47.19624498900001,0 9.487082198000049,47.17263601700009,0 9.502082284000039,47.1468091940001,0 9.511736057000061,47.1059732320001,0 9.474636077000071,47.05745408300001,0 9.48528226800005,47.0611002110001,0 9.506391253000061,47.0647181750001,0 9.541391231000031,47.0700001160001,0 9.59863610900004,47.063836064,0 9.632500171000061,47.0566641720001,0 9.71944515000007,47.0502821910001,0 9.87291813300004,47.0230450290001,0 9.891600222000021,47.00033610600009,0 9.875836041000071,46.9681821200001,0 9.877782152000069,46.9404091870001,0 9.93500020800008,46.91277321399999,0 10.0588912750001,46.8663911140001,0 10.1094450480001,46.8502732170001,0 10.1315271720001,46.8504091720001,0 10.141809085,46.8513450950001,0 10.1608361730001,46.8550001080001,0 10.2275001310001,46.876936051,0 10.313327132,46.9336091160001,0 10.323327078,46.9555541120001,0 10.3506271040001,46.9912450940001,0 10.390763345,47.00256418400011,0 10.430000207,46.98416423,0 10.488209172,46.9359910850001,0 10.4712361530001,46.871354039,0 10.4475001120001,46.763053982,0 10.4708361690001,46.63582708500009,0 10.4865270920001,46.6173540410001,0 10.485691248,46.592636144,0 10.4718731780001,46.5557641520001,0 10.457527048,46.5425001250001,0 10.4497181310001,46.539164128,0 10.3372180710001,46.549435982,0 10.303609153,46.554864271,0 10.2463181740001,46.5904090720001,0 10.2536090890001,46.615964154,0 10.2418001610001,46.6344450770001,0 10.181109147,46.6322181730001,0 10.1191631940001,46.61138210299999,0 10.0513911480001,46.54151810100011,0 10.044445065,46.5026361290001,0 10.049682246,46.445591075,0 10.09069121,46.423744985,0 10.153891263,46.39027319600011,0 10.1739540190001,46.26311804800011,0 10.13639119,46.23069114700011,0 10.071773255,46.2218001270001,0 9.99500021800003,46.291664128,0 9.982218151000041,46.3330450810001,0 9.99041816700003,46.35520012799999,0 9.94694509100003,46.379582079,0 9.90805406600003,46.38319115800001,0 9.85278228700003,46.36971808700009,0 9.81305407800005,46.358327081,0 9.77055414000006,46.3422091840001,0 9.708818071000049,46.30027318100011,0 9.62471807700007,46.29193603699999,0 9.581945058000031,46.2969450630001,0 9.54486318200003,46.306245119,0 9.52139117100006,46.31971802300009,0 9.457636069000049,46.38624502099999,0 9.45028229000008,46.42666423499999,0 9.45500012800005,46.4725001690001,0 9.36680021000006,46.5080540230001,0 9.293782266000051,46.5008271460001,0 9.25062720000005,46.4424270740001,0 9.273127078000069,46.425764186,0 9.29721817600006,46.3509642490001,0 9.29263612500006,46.32485394999999,0 9.27666323500006,46.292500139,0 9.241009133000031,46.23362716,0 9.17645406200006,46.178600133,0 9.14443619700006,46.16804497,0 9.132218065000069,46.1602731020001,0 9.08333614600002,46.121109162,0 9.035827184000031,46.0572181050001,0 9.01666330300003,46.0225000940001,0 8.99736330100006,45.975136138,0 9.02298225200008,45.938953977,0 9.073054066000051,45.9200001470001,0 9.084100241000041,45.90229119700011,0 9.03666319500007,45.8377731740001,0 8.99833610400003,45.8294360300001,0 8.95110910900007,45.845273133,0 8.936318067000061,45.871873103,0 8.926663288000039,45.9008360990001,0 8.89778226700003,45.952773221,0 8.819863257000071,45.9863821380001,0 8.82028218400006,46.03388221600011,0 8.85145414700003,46.0567361450001,0 8.84416323200003,46.080753986,0 8.82221806900003,46.098609116,0 8.74721814000003,46.121109162,0 8.72885406100005,46.108591125,0 8.719300200000021,46.104018126,0 8.696527072000039,46.10110910300011,0 8.61583616600007,46.1212451160001,0 8.460554033000051,46.2333270880001,0 8.445000238000031,46.24721808100001,0 8.434582203000049,46.29319114300011,0 8.44812719100003,46.32298210400009,0 8.46597326900007,46.3726359950001,0 8.460836168000069,46.4483270960001,0 8.441454023000061,46.4620821340001,0 8.36527325100008,46.453609036,0 8.35721807500005,46.450000124,0 8.30374505300006,46.42290914200001,0 8.14194515200006,46.22290905300009,0 8.158745168000049,46.18381803500011,0 8.14958223900004,46.151245121,0 8.00902711000003,46.00930010500009,0 7.973054161000051,45.9969361280001,0 7.950000239000081,45.99416423200011,0 7.906809130000059,45.9926360440001,0 7.87930022700004,45.975136138,0 7.866391258000019,45.9483271240001,0 7.85574506700004,45.91905399800001,0 7.78389120200006,45.92360905900009,0 7.743336034000039,45.932218112,0 7.70916318200005,45.94332715100009,0 7.65028215600006,45.98055403299999,0 7.53666327900004,45.981664132,0 7.458054103000051,45.94110913200009,0 7.42971807300006,45.929445043,0 7.38610921000003,45.9154090430001,0 7.338891267000061,45.9205540230001,0 7.29680908400007,45.9231911370001,0 7.230282254000029,45.8980450920001,0 7.19139122900003,45.88069120000011,0 7.10326322800006,45.88353601800001,0 7.07028228300004,45.9030539500001,0 7.03805403300004,45.9319361450001,0 7.03055407300008,45.9619359820001,0 7.00721818400007,45.99805410599999,0 6.933054099000061,46.055273168,0 6.87389110600003,46.088053953,0 6.78347316900005,46.1547180790001,0 6.80000010300006,46.3783271400001,0 6.80701810300008,46.4042270530001,0 6.798336128000071,46.4286091710001,0 6.73778224100005,46.4474910850001,0 6.70277321100002,46.4547181290001,0 6.63360909900007,46.464164199,0 6.51513609400007,46.4584641700001,0 6.49194504400003,46.453045101,0 6.31971822300005,46.404164189,0 6.29555403400008,46.394164243,0 6.244863301000071,46.35638214400011,0 6.23000017500004,46.3302000960001,0 6.24374515500006,46.3155091340001,0 6.271945063000031,46.26193603200009,0 6.24555413800005,46.21832700100001,0 6.18750023800004,46.1720821970001,0 6.13326328900007,46.149782144,0 5.99639116900005,46.1469450370001,0 5.96700907800005,46.2072912200001,0 5.981391250000059,46.2219360810001,0 6.009163178000049,46.2338911900001,0 6.03000025400007,46.24139114900001,0 6.074582256000039,46.2484000970001,0 6.115554004000049,46.261527163,0 6.10610910800006,46.29749106,0 6.11763606900007,46.3087451060001,0 6.15354514800003,46.379264237,0 6.11110908100005,46.40971803800009,0 6.071109130000021,46.4263821000001,0 6.08694506000006,46.44943602199999,0 6.135282155000029,46.5397181710001,0 6.12868224400006,46.588054093,0 6.26916327700008,46.68278217200001,0 6.358745035000031,46.7167270360001,0 6.435000238000039,46.75804512400001,0 6.456873149000051,46.781454104,0 6.44694512000007,46.8394360870001,0 
							</coordinates>
						</LinearRing>
					</outerBoundaryIs>
					<innerBoundaryIs>
						<LinearRing>
							<coordinates>
								8.710254115000049,47.696809063,0 8.705482129000069,47.71103600200009,0 8.67395410300003,47.7028540910001,0 8.678591140000041,47.69334499000011,0 8.710254115000049,47.696809063,0 
							</coordinates>
						</LinearRing>
					</innerBoundaryIs>
				</Polygon>
			</MultiGeometry>
		</Placemark>
	</Folder>
</Document>
</kml>
